"Location ID","Location Name","Location Name (Spanish)",Address,"Address Line 2",City,State,Zip
979,1,,1,,1,AZ,1
734,"479 S. Lake Powel Blvd.","Page Public Library","479 S. Lake Powel Blvd.","P.O. Box 1776",Page,AZ,86040
789,"AAEC-Red Mountain","AAEC-Red Mountain","2165 N. Power Rd",,Mesa,AZ,85215
1086,"Abraham Lincoln Traditional School",,"10444 N. 39th Ave. ",,Phoenix,AZ,85051
390,"Acacia Elementary School",,"3021 W. Evans Dr",,Phoenix,AZ,85051
9,"Acacia Elementary School",,"12955 E. Colossal Cave Rd",,Vail,AZ,85641
122,"Acacia Elementary School",,"3021 W Evans Dr",,Phoenix,AZ,85053
681,"Academic Help Desk",,"2030 E Broadway Blvd.",#205,Tucson,AZ,85719
130,"Academy Adventures Primary School",,"3902 N. Flowing Wells Rd.",,Tucson,AZ,85705
94,"Academy of Math and Science",,"1557 W. Prince",,Tucson,AZ,85705
537,"Academy of Tucson Elementary School",,"9209 E. Wrightstown Rd.",,Tucson,AZ,85715
893,"ACP-Erie Campus",,"1150 W Erie Street",,Chandler,AZ,85224
992,"After School Program",,"225 S. Orlando St",,Florence,AZ,85132
603,"Aguilar School",,"5800 S Forest Dr.",,Tempe,AZ,85283
809,"Ahwatukee Family YMCA",,"1030 E. Liberty Lane",,Phoenix,AZ,85048
364,"Aldea Montessori",,"15639 N. 40th St",,Phoenix,AZ,
618,"Alfred F. Garcia Elementary School",,"1441 S. 27th Avenue",,Phoenix,AZ,85009
628,"Allsport Academy",,"6211 East Speedway Blvd",,Tucson,AZ,85712
1164,"Alta E. Butler Elementary School",,"3843 W. Roosevelt St.",,Phoenix,AZ,85009
440,"Alta Loma elementary",,"9750 N. 87 Ave.",,Peoria,AZ,85345
329,"Altar Valley Middle School",,"10105 S Sasabe Hwy",,Tucson,AZ,85736
308,"Alta Vista Elementary School",,"8710 N 31 Ave",,Phoenix,AZ,85051
932,"Amberlea Elementary",,"8455 W. Virginia Avenue",,Phoenix,AZ,85037
935,"American Extended Day",,"8530 N 55th Avenue",,Glendale,AZ,85302
951,"American Leadership Academy",,"4507 S Mountain Road",,Mesa,AZ,85212
396,"AmeriSchools Academy",,"1150 N country club",,tucson,AZ,85716
357,"AmeriSchools Academy Camelback",,"1333 W Camelback Rd",,Phoenix,AZ,85013
368,"AmeriSchools Academy YUma",,"2098 S. 3rd Ave",,Yuma,AZ,85364
638,"Amy L. Houston Academy",,"7139 South 10th Street",,Phoenix,AZ,
639,"Anasazi Elementary School",,"12121 N. 124th St.",,Scottsdale,AZ,85259
317,"Andersen Elementary",,"1350 w. Pennington",,Chandler,AZ,85224
182,"Andersen Elementary",,"1350 N. Pennington",,Chandler,AZ,85224
707,"A New Leaf",,"868 E University Drive",,Mesa,AZ,85203
276,"A New Leaf",,"5850 W. Northview",,Glendale,AZ,85301
538,"ANLC Elementary School",,"4330 N. 62nd Street",,Scottsdale,AZ,85251
513,"Annie Kellond Elementary",,"6606 E. Lehigh Dr.",,Tucson,AZ,85710
778,"Anthem Before/After Care program",,"41020 NE Freedom Way",,Anthem,AZ,85086
636,"Anthem Elementary",,"41020 . Freedom Way",,Anthem,AZ,85086
1061,"Anthem Prep",,"39808 N Gavilan Peak Pkwy",,Phoenix,AZ,85085
465,"Anthem Tutor Time",,"3720 W. Anthem Way",,Anthem,AZ,85086
467,"AOE Phoenix",,"425 N. 36th St",,Phoenix,AZ,
501,"Apache Elementary",,"8633 W. John Cabot Rd.",,Peoria,AZ,85382
359,"Apollo Middle School",,"2797 N. Introspect Drive",,Tucson,AZ,85745
802,"Apollo Middle School",,"265 W. Nebraska St",,Tucson,AZ,85706
1145,"Archer Recreation Center",,"1665 S. La Cholla",,Tucson,AZ,85713
1062,"Archway Glendale Prep",,"23276 N 83rd Ave",,Peoria,AZ,85383
1057,"Archway Glendale Prep",,"23276 N 83rd Ave",,"Peoria ",AZ,85383
96,"Arivaca Community Center",,"16012 W. Universal Ranch Rd.","Box 36",Arivaca,AZ,85601
759,"Arizona City Branch",,"15115 W. Benito Ave.",,"Arizona City",AZ,85123
1042,"Arizona Desert Elementary School",,"8803 W. Van Buren St.",,"Tolleson ",AZ,85353
514,"Arizona Museum of Natural History",,"53 N Macdonald St",,Mesa,AZ,85201
739,"Arizona Self-Study Project",,"3910 S. Rural Rd., Suite E",,Tempe,AZ,85282
11,"Arredondo School",,"1330 E. CarsonDr",,Tempe,AZ,85282
779,"Arrowhead Before/After care program",,"7490 W Union Hills Dr.",,Glendale,AZ,85308
763,"Arrowhead Before/after School Program",,"7490 W Union Hills ",,Glendale,AZ,85308
282,"Arrowhead Elementary School",,"3820 E. Nisbet",,Phoenix,AZ,85032
76,"Arrowhead Elementary School",,"7490 W. Union Hills Dr",,Glendale,AZ,85308
280,"Arroyo Elementary School",,"4535 W. Cholla AVe",,Glendale,AZ,85304
306,"Arthur M. Hamilton Elementary School",,"2020 W. Durango",,Phoenix,AZ,85009
483,"Arts For All, Inc.",,"2520 N. Oracle Rd.",,Tucson,AZ,85705
392,"Ascension Lutheran School",,"1220 West Magee Road",,Tucson,AZ,85704
438,"Ashland Ranch Elementary",,"1945 S. Ashland Ranch",,Gilbert,AZ,85296
835,"Ashton Ranch Elementary",,"14898 W. Acoma Drive",,Surprise,AZ,85379
950,"ASU Polytechnic",,"7001 E Williams Field Rd",,Mesa,AZ,85212
594,"ASU Preparatory Academy",,"735 East Fillmore",,Phoenix,AZ,85006
1079,"As You Wish Pottery",,"4905 East Ray Rd. #103",,Phoenix,AZ,85044
1081,"As You Wish Pottery",,"1649 S Stapley #101",,Mesa,AZ,85204
1080,"As You Wish Pottery",,"2970 E Germann Rd #4",,Chandler,AZ,85286
1078,"As You Wish Pottery",,"21001 N Tatum Blvd",,Phoenix,AZ,85050
1077,"As You Wish Pottery",,"3009 W Agua Fria Fwy",,Phoenix,AZ,85027
1082,"As You Wish Pottery",,"2000 E Rio Salado Parkway #1141",,Tempe,AZ,85281
1083,"As You Wish Pottery",,"4905 East Ray Rd. #103AZ ",," Phoenix",AZ,85044
1070,"ATA Martial Arts","ATA Artes Marciales","29850 N. Tatum Blvd ",#105,"Cave Creek",AZ,85331
1069,"ATA Martial Arts","ATA Artes Marciales","13735 W. Auto Dr.",,Goodyear,AZ,85338
448,"Augusta Ranch Elementary",,"9430 E. Neville Ave.",,Mesa,AZ,85209
921,AzCASE,,"3205 S. Rural Rd.",,Tempe,AZ,85282
895,"Bahsa Elementary",,"3535 E Basha Road",,Chandler,AZ,85248
1140,"Bales Elementary",,"25400 W. Maricopa Rd",,Buckeye,AZ,85326
229,"Balsz Elementary School",,"4309 E. Belleview St.",,Phoenix,AZ,85008
745,"Banks Elementary",,"3200 S Lead Flower",,Tucson,AZ,85735
858,"Barbara B. Robey Elementary",,"5340 Wigwam Creek Blvd",,"Litchfield Park",AZ,85340
646,"Barbara B Robey Elementary School",,"5340 N Wigwam Creek Blvd",,"Litchfield Park",AZ,85340
534,"Barefoot Days Preschool",,"8323 E 22nd Street",,Tucson,AZ,85710
79,"Barker Branch",,"2311 N Miller Rd",,Scottsdale,AZ,85257
393,"Basha Elementary School",,"3535 S. Basha Road",,Chandler,AZ,85248
799,"Be A Leader Foundation ",,"6850 N. Central Avenue",,"Phoenix ",AZ,85012
1054,"Beginners Edge Sports Training",,"24654 North Lake Pleasant Parkway","Suite 1830-1840","Peoria ",AZ,85383
1053,"Beginners Edge Sports Training",,"7000 East Shea Blvd","Suie 1830","Scottsdale ",AZ,85254
699,"Bernard Black Elementary School",,"6550 South 27th Avenue",,Phoenix,AZ,85041
201,"Betania Presbyterian Church",,"2811 N. 39th Avenue",,Phoenix,AZ,85009
741,"Bethel Church",,"6901 E. Horizon Lane",,"Prescott Valley",AZ,86314
1,"Beyond Care Preschool",,"1601 E. Bell Rd.",A19,Phoenix,AZ,85022
486,"Bicentennial North School",,"7237 W. Missouri Avenue",,Glendale,AZ,85303
937,"Bicentennial South School",,"7240 W Colter Avenue",,Glendale,AZ,85303
1015,"Big Brothers Big Sisters of Tucson","Big Brothers Big Sisters of Tucson","160 E Alameda",,Tucson,AZ,85701
395,"Black Mountain Elementary",,"33606 N. 60th St",,Scottsdale,AZ,85262
1059,"Blackstone Country Club",,"12101 W Blackstone Dr",,Peoria,AZ,85383
227,"Blenman Elementary School",,"1695 North Country Club",,Tucson,AZ,85716
987,"Bloom Elementary KIDCO",,"8310 E. Pima",,Tucson,AZ,85715
81,"Bogle Junior High School",,"1600 W. Queen Creek Rd.",,Chandler,AZ,85248
411,"Bologna Elementary School",,"1625 East Frye Road",,Chandler,AZ,85225
563,"Bonillas Elementary School",,"5500 E Winsett St",,Tucson,AZ,85711
1146,"Borton elementary - KIDCO",,"701 E. 22nd Street",,Tucson,AZ,85713
487,"Borton Elementary School",,"700 E 22nd Street",,Tucson,AZ,85713
540,"Boulder Creek Elementary",,"22801 N. 22nd Street",,Phoenix,AZ,85024
148,"Boys and Girls Club",,"5047 W. Pecos Rd.",,Laveen,AZ,85339
619,"Boys and Girls Clubs of Greater Scottsdale - Piper Branch",,"10515 Lakeview Dr",,Scottsdale,AZ,85258
1138,"Boys and Girls Clubs of the East Valley Queen Creek Branch",,"22557 S. Ellsworth Rd. ",,"Queen Creek",AZ,85142
1004,"Boy Scouts of America","Office, Scout Store","5049 E Broadway Blvd",#200,Tucson,AZ,85711
1052,"Boys & Girls Club Grant Woods ",,"221 W. 6th Ave",,Mesa,AZ,85210
822,"Boys & Girls Club of Bisbee",,"405 Arizona St, ","PO Box 5205",Bisbee,AZ,85603
793,"Boys & Girls Club of Northern Arizona - Cottonwood Branch",,"817 N. 2nd Street",,Cottonwood,AZ,86326
985,"Boys & Girls Club of Peach Springs",,"479 Diamond Creek Rd",,"Peach Springs",AZ,86434
1006,"Boys & Girls Club of Sierra Vista",,"1746 Paseo San Luis",,"Sierra Vista",AZ,85635
919,"Boys & Girls Clubs - Acorn Montessori Branch",,"7555 East Long Look Dr",,"Prescott Valley",AZ,86314
655,"Boys & Girls Clubs of Metropolitan Phoenix - Colangelo Branch",,"1755 N. 34th Ave",,Phoenix,AZ,85009
243,"Boys & Girls Clubs of Metropolitan Phoenix - Harry & Sandy Rosenzweig Branch",,"2242 W. Missouri Ave",,Phoenix,AZ,85015
651,"Boys & Girls Clubs of Metropolitan Phoenix-Herbert Kieckhefer Branch",,"548 W. Southern Ave",,Phoenix,AZ,85041
315,"Boys & Girls Clubs of Metropolitan Phoenix - I.G. Homes Branch",,"1601 W. Sherman St.",,,AZ,85007
541,"Boys & Girls Clubs of Metropolitan Phoenix- Peoria Branch",,"11820 N. 81st Ave",,Peoria,AZ,85345
384,"Boys & Girls Clubs of Metropolitan Phoenix- Sands Branch",,"4730 W. Grovers Ave.",,Glendale,AZ,85308
157,"Boys & Girls Clubs of Metropolitan Phoenix - Spencer D. & Mary Jane Stewart Branch",,"6629 W. Clarendon Ave.",,Phoenix,AZ,85033
656,"Boys & Girls Clubs of Metropolitan Phoenix - Warner A. Gabel Branch",,"1330 N. 15th Street",,Phoenix,AZ,85006
954,"Boys & Girls Clubs of the Colorado River",,"2250 Highland Road",,"Bullhead City",AZ,86442
866,"Boys & Girls Clubs of the East Valley Apache Junction Branch",,"1755 N. Idaho Road",,"Apache Junction",AZ,85119
437,"Boys & Girls Clubs of the East Valley - Compadre Branch, Chandler",,"300 E Chandler Blvd",,Chandler,AZ,85225
304,"Boys & Girls Clubs of the East Valley - Gilbert Branch",,"44 N. Oak St.",,Gilbert,AZ,85233
870,"Boys & Girls Clubs of the East Valley Gilbert Branch",,"44 North Oak Street",,Gilbert,AZ,85233
872,"Boys & Girls Clubs of the East Valley Grants Woods Mesa Branch",,"221 West Sixth Ave",,Mesa,AZ,85210
871,"Boys & Girls Clubs of the East Valley Guadalupe Thunderbirds Branch",,"9225 South Avenida Del Yaqui",,Guadalupe,AZ,85383
868,"Boys & Girls Clubs of the East Valley Komatke Branch",,"5047 West Pecos Rd",,Laveen,AZ,85339
873,"Boys & Girls Clubs of the East Valley Ladmo Tempe Branch",,"715 West Fifth St",,Tempe,AZ,85281
869,"Boys & Girls Clubs of the East Valley Sacaton Branch",,"Seedfarm Road & Cholla Ave",,Sacaton,AZ,85247
876,"Boys & Girls Clubs of the East Valley Stevenson Branch",,"638 South 96th St",,Mesa,AZ,85208
652,"Boys & Girls Clubs of Tucson Frank & Edith Morton Clubhouse",,"3155 E. Grant Rd",,Tucson,AZ,85716
917,"Boys & Girls Clubs - Prescott Branch",,"335 E Aubrey St",,Prescott,AZ,86303
918,"Boys & Girls Clubs - Prescott Valley Branch",,"8201 E Loos Dr",,"Prescott Valley",AZ,86314
572,"Boys Hope Girls Hope Learning Center",,"3443 N. Central Avenue","Suite 713",Phoenix,AZ,85012
976,"Boys to Men Office",,"3208 Lakeside Village Drive",,Prescott,AZ,86301
173,"Brichta Elementary School",,"2110 W. Brichta",,Tucson,AZ,85745
442,"Bright star Learning Center",,"1750 E. Prince",,Tucson,AZ,85719
117,Brinton,,"11455 E Sunland Ave",,Mesa,AZ,85208
300,"Broadmor School",,"311 E. Aepli",,Tempe,AZ,85282
697,"Brunson Lee Elementary School",,"4825 E Roosevelt",,Phoenix,AZ,85008
366,"Buckeye Middle School and Buckeye Primary",,"25555 W. Durango",,Buckeye,AZ,85326
624,"Burk Elementary School",,"545 North Burk Street",,Gilbert,AZ,85234-3478
508,Bush,,"4925 E Ingram St",,Mesa,AZ,85205
127,"Bustoz School",,"2020 E. Carson Dr.",,Tempe,AZ,85282
210,"BusyBee Day Care",,"17548 S. Garden Sage Loop",,Vail,AZ,85641
228,"Butterfield Elementary",,"3400 W. Massingale",,Tucson,AZ,85741
545,"Cactus View Elementary School",,"17602 N. Central",,Phoenix,AZ,85022
89,"Cactus Wren Elementary School",,"9650 N. 39th Ave",,Phoenix,AZ,85032
1072,"Camelback Bible Church",,"3900 E Stanford Dr",,"Paradise Valley",AZ,85253
1091,"Camelback Bible Church",,"3900 E Stanford Dr ",,"Paradise Valley ",AZ,85253
1136,"Camp Foothills",,"4300 E. Sunrise Drive",,Tucson,AZ,85718
1025,"Camp Iwannago","Thomas Elementary","3330 E. Lockett Ave. ",,Flagstaff,AZ,86004
296,"Campo Bello Elementary School",,"2650 E. Contention Mine",,Phoenix,AZ,85032
1058,"Candeo Traditional School",,"9965 W Calle Lejos",,Peoria,AZ,85383
134,"Canyon Elementary School",,"5490 W Paradise Lane",,Glendale,AZ,85308
840,"Canyon Ridge Elementary",,"17359 W. Surprise Farms Loop N",,Surprise,AZ,85388
205,"Canyon Rim elementary school",,"3045 S. Canyon RIm",,Mesa,AZ,85212
295,"Canyon Springs School, Anthem, AZ",,"42901 N. 45Th Ave.",,Phoenix,AZ,85086
409,"Canyon View Elementary School",,"5725 N. Sabino Canyon Rd.",,Tucson,AZ,85750
597,"Capstone Academy",,"1150 n country club",,tucson,AZ,85176
271,"Carden of Tucson Charter School",,"5260 N. Royal Palm Drive",,Tucson,AZ,85705
13,"CARE Partnership",,"1811 S. Alma School Rd.",,Mesa,AZ,85210
896,"Carlson Elementary",,"5400 S. White Drive",,Chandler,AZ,85249
626,"Carmichael Elementary School",,"701 NE Carmichael",,"Sierra Vista",AZ,85635
454,"Carminati School",,"4001 S. McCallister",,Tempe,AZ,85282
659,"Carol Rae Ranch Elementary",,"3777 E Houston",,Gilbert,AZ,85234
1064,"Carrie Curran Art Studios",,"10636 N. 71st Way, Suite 12",,Scottsdale,AZ,85254
297,"Carson Middle School",,"7777 E. Stella",,Tucson,AZ,85730
433,"Casa Ninos School of Montessori, Inc.",,"8655 E Broadway",,Tucson,AZ,85710
258,"Casas Christian School",,"10801 N La Cholla Blvd",,Tucson,AZ,85742
1131,"Catalina Foothills High School",,"4300 E. Sunrise Dr.",,Tucson,AZ,85718
462,"Catalina Recreation Center",,"16562 N. Oracle Rd.",,Tucson,AZ,85739
991,"Centennial Elementary School ",,"3507 S. Ranch House Parkway ",,"Gilbert ",AZ,85297
71,"Centennial Youth Enrichment Services",,"2200 W. Wetmore Rd.",,Tucson,AZ,85705
362,"Centerra Mirage School",,"15151 Centerra Drive South",,Goodyear,AZ,85338
198,"Central Mesa",,"466 S. Bellview St.",,Mesa,AZ,85204
149,"Central Park Neighborhood Center",,"140 E. Tonto Street",,Phoenix,AZ,85004
23,"Central United Methodist Church",,"1875 North Central Avenue",,Phoenix,AZ,85004
50,"Central & Western Avenue",,"301 E. Western Avenue",,Avondale,AZ,85323
348,"C. E. Rose",,"710 W. Michigan Dr",,,AZ,85748
281,"Cerritos Elementary",,"14620 S. Desert Foothills Parkway",,Phoenix,AZ,85048
633,"Cerritos Elementary School",,"14620 S Desert Foothills Pky.",,Phoenix,AZ,85018
1050,"Cesar Chavez Community School",,"4001 S. 3rd Street",,Phoenix,AZ,85040
346,"Cesar Chavez Elementary School",,"4001 S. Third St",,Phoenix,AZ,85040
239,"Challenge Charter School",,"5801 West Greenbriar Dr.",,Glendale,AZ,85308
803,"Challenger Middle School",,"100 E. Elvira Rd",,"Tucson ",AZ,85706
608,Chandler,,"201 S. Washington",,Chandler,AZ,85225
800,"Chandler/Gilbert Family YMCA",,"1655 W Frye Road",,Chandler,AZ,85224
536,"Chaparral Drinkwater Building",,"8102 E Jackrabbit Rd.",,Scottsdale,AZ,85250
804,"Chaparral Middle School",,"3700 E. Alvord Rd",,"Tucson ",AZ,85706
884,"Cheatham Elementary School",,"4725 West south Mountain Avenue",,Laveen,AZ,85339
211,"Cherokee Elementary School",,"8801 North 56th Street",,"Paradise Valley",AZ,85253
1160,"Cherry Ave Recreation Center",,"5085 S. Cherry Ave.",,Tucson,AZ,85706
617,"Cheyenne elementary",,"11806 N. 87 Ave",,Peoria,AZ,85345
404,"Cheyenne Traditional School",,"13636 N. 100th St.",,Scottsdale,AZ,85260
1051,"Children First Academy ",,"1938 E Apache Blvd",,Tempe,AZ,85281
677,"Children Reaching for the Sky Elementary",,"1844 S. Alvernon Way",,Tucson,AZ,85711
34,"Children's Campus",,"2830 N. 43rd Ave",,Phoenix,AZ,85009
589,"Children's Campus Too",,"3446 W. Camelback Road","Ste 135",Phoenix,AZ,85017
709,"Children's Success Academy",,"925 East Bilby Road",,Tucson,AZ,85706
853,Childtime,,"5930 W Greenway Rd","Suite #15",Glendale,AZ,85306
83,"Childtime Learning Center",,"5675 E. River Rd",,Tucson,AZ,85750
466,"Childtime Learning Center",,"3011 W. Bell Rd.",,Phoenix,AZ,85053
588,"Childtime Learning Centers",,"7090 N. Thornydale Rd",,Tucson,AZ,85741
176,"Childtime,  Tucson AZ",,"1120 S Harrison Road",,,AZ,85748
1111,"Chino After School Advantage",,"1036 Road 1 West",,"Chino Valley",AZ,86323
1074,"Cholla Campus",,"11130  Cholla st ",,scottsdale,AZ,85259
302,"Cholla high School",,"2001 W. Starr Pass Blvd",,Tucson,AZ,85713
171,"Cholla Middle School",,"3120 W. Cholla Avenue",,Phoenix,AZ,85029
1169,"Christ's Community Church",,"4530 W. Thunderbird Rd.",,Glendale,AZ,85306
838,"Cimarron Springs Elementary",,"17032 W. Surprise Farms Loop S",,Surprise,AZ,85388
415,"City High School",,"48 E. Pennington Street",,Tucson,AZ,85705
1098,"City of Chandler Community Center",,"125 E. Commonwealth Ave.",,Chandler,AZ,85225
584,"City of Tempe Westside Multi-Generation Center",,"715 W 5th St",,Tempe,AZ,85281
666,"Clarendon School",,"1225 West Clarendon",,Phoenix,AZ,85013
39,"Classic Cooking Academy",,"10411 E. McDowell Mountain Ranch Rd.",,Scottsdale,AZ,85255
45,"Clements Center",,"8155 E. Poinciana Dr",,Tucson,AZ,85730
307,"Cloves C. Campbell Elementary School",,"2624 E. South Mountain Avenue",,Phoenix,AZ,85042
292,"Cochise Elementary",,"9451 N. 84th street",,Scottsdale,AZ,85258
581,"Colina Elementary School",,"13612 S. 36th St",,Phoenix,AZ,85226
1046,"Collier Elementary School",,"3900 N. Bear Canyon Rd",,Tucson,AZ,85749
526,"Collier Elementary School",,"3900 N. Bear Canyon",,Tucson,AZ,85749
889,"Combs Kidz at CTA",,"37237 N. Gantzel Rd",,"San Tan Valley",AZ,85140
826,"Combs Kidz Combs Traditional Acadmey",,"37327 N. Gantzel Rd",,"San Tan Valley",AZ,85140
827,"Combs Kidz Ellsworth Elementary",,"38454 N. Carolina Ave",,"San Tan Valley",AZ,85140
828,"Combs Kidz Harmon Elementary",,"39315 N. Cortona Dr",,"San Tan Valley",AZ,85140
830,"Combs Kidz Ranch",,"43521 N. Kenworthy",,"San Tan Valley",AZ,85140
829,"Combs Kidz Simonton Elementary",,"40300 N. Simonton Blvd",,"San Tan Valley",AZ,85140
616,"Community Based Site",,"201 S. Washington Street",,Chandler,AZ,85225
524,"Community Bridges",,"1811 S Alma School Road","ste 160",mesa,AZ,85210
53,"Community Literacy Center",,"949 E 35th St",,Tucson,AZ,85713
298,"Community Schools Office",,"9313 North 95th Way",,Scottsdale,AZ,85258
644,"Conley Elementary School",,"500 S. Arrowhead Dr.",,Chandler,AZ,85224
673,"Conley Elementary School",,"1525 W. Frye Rd.",,Chandler,AZ,85224
1032,"Copper Basin Family YMCA",,"28300 N. Main Street",,"San Tan Valley",AZ,85143
421,"Copper Canyon Elementary School",,"17650 N. 54th St.",,Scottsdale,AZ,85254
1113,"Copper Creek Before and After School Program",,"11620 N. Copper Springs Trail",,Tucson,AZ,85737
63,"Copper Creek Elementary School",,"7071 W Hillcrest Blvd",,Glendale,AZ,85310
313,"Copper Creek Elementary School",,"11621 N. Copper Springs Trail",,"Oro Valley",AZ,85737
1033,"Copper Creek School Age Program",,"11620 N. Copper Spring Trail",,Tucson,AZ,85737
337,"Copper King Elementary",,"10730 West Campbell Avenue",,Phoenix,AZ,85037
564,"Copper Ridge Elem.",,"10101 E Thompson Peak Pkwy",,Scottsdale,AZ,85255
746,"Corbett Elementary",,"5949 E 29th ",,Tucson,AZ,85711
1112,"Coronado Before and After School Program",,"3401 E. Wilds Rd.",,Tucson,AZ,85738
580,"Coronado K-8 School",,"3401 E. Wilds Rd",,Tucson,AZ,85739
1034,"Coronado School Age Program",,"3401 E. Wilds Road",,Tucson,AZ,85738
55,"Corona Foothills Middle School",,"16705 South Houghton Road",,Vail,AZ,85641
969,"Corte Sierra Elementary",,"3300 N Sante Fe Trail",,Avondale,AZ,85392
861,"Corte Sierra Elementary",,"3300 Santa Fe Trail",,Avondale,AZ,85392
245,"Cotton Boll elementary",,"8540 W. Butler Dr.",,Peoria,AZ,85345
152,"Cotton Boll Elementary School",,"8540 W. Butler Ave",,Peoria,AZ,85345
596,"Cotton Boll School",,"8540 West Butler",,Peoria,AZ,85345
621,"Cottonwood Elementary School",,"9950 Rees Loop",,Tucson,AZ,85747
22,"Country Meadows Elementary",,"8409 N. 111 AVe",,Peoria,AZ,85345
839,"Countryside Elementary",,"15034 N. Parkview Pl.",,Surprise,AZ,85379
67,"Countryside Recreation Center",,"15038 N Parkview Place",,Surprise,AZ,85374
339,"Coyote Hills elementary",,"21180 N.87 Ave.",,Peoria,AZ,85382
936,"Coyote Ridge School",,"7677 W Bethany Home Rd",,Glendale,AZ,85303
882,"Coyote Trail Elementary",,"8000 N. Silverbell Rod",,Tucson,AZ,85743
685,"Craigin Elementry",,"2945 N. Tucson Blvd.",,tucson,AZ,85716
527,"Creative Center for Early Education",,"3020 E. Cactus Rd",,Phoenix,AZ,85022
517,"Creative Kids Preschool",,"1310 W. Ina Road",,Tucson,AZ,85704
629,"Crismon Elementary",,"825 W Medina",,Mesa,AZ,85210
585,"Crismon Elementary",,"1313 W. Medina",,Mesa,AZ,85202
907,"Cromer FACTS",,"7150 E. Silver Saddle Rd.",,Flagstaff,AZ,86004
782,"Cromer FACTS",,"7150 E. Silver Saddle",,Flagstaff,AZ,86004
188,"CTA Freedom",,"6040 S Joslyn Ln",,Gilbert,AZ,85298
898,"CTA - Freedom Elementary",,"6040 S. Joslyn Lane",,"Gilbert ",AZ,85298
899,"CTA - Goodman Elementary",,"2600 W. Knox Road",,Chandler,AZ,85224
641,"CTA Independence",,"1405 W. Lake Dr.",,Chandler,AZ,85248
164,"CTA Liberty",,"550 N Emmett",,,AZ,85225
207,"Curry Elementary",,"1974 E. Meadow Dr.",,Tempe,AZ,85282
218,"Curry School",,"1974 E Meadow Dr.",,Tempe,AZ,85282
343,"DAISY EDUCATION CORP",,"2325  W SUNSET RD",,TUCSON,AZ,85741
700,"Davidson Elementary",,"6935 West Osborn Road",,Phoenix,AZ,85033
604,"Davidson Elementary",,"3950 E Paradise Falls",,Tucson,AZ,85712
32,"Davis Monthan",,"5741 E Broadway Blvd",,Tucson,AZ,85708
753,"Deer Valley Rock Art Center",,"3711 W. Deer Valley Rd.",,Phoenix,AZ,85308
335,"Degracia Elementary school",,"5070 w. warbler St.",,Tucson,AZ,85742
883,"DeGrazia Elementary",,"5051 W. Overton Rd",,Tucson,AZ,85742
783,"DeMiguel FACTS",,"3500 S. Gillenwater Dr.",,Flagstaff,AZ,86001
497,"Desert Canyon Elementary School",,"10203 E. McDowell Mtn. Ranch Rd.",,Scottsdale,AZ,85255
472,"Desert Cove Elementary",,"11020 N. 28th st.",,phoenix,AZ,85024
663,"Desert Cove Elementary School",,"11020 North 28th Street",,Phoenix,AZ,85028
1096,"Desert Cross Lutheran Church",,"8600 S. McClintock Dr.",,Tempe,AZ,85284
355,"Desert Dove Farm",,"11865 E. Speedway",,Tucson,AZ,85748
26,"Desert Foothills Junior High School",,"3333 W Banff",,Phoenix,AZ,85053
237,"Desert Garden Elementary School",,"7020 W Ocotillo",,Glendale,AZ,85301
168,"Desert Harbor Elementary",,"15585 N. 91 Ave.",,Peoria,AZ,85383
1008,"Desert Mesa Discovery Club","Desert Mesa Discovery Club","2350 S. Avenue 7 1/2 E",,"Yuma,",AZ,85365
123,"Desert Mirage Elementary",,"8605 W. Maryland",,Glendale,AZ,85305
878,"Desert Moon Elementary School",,"23251 N166th Dr",,Surprise,AZ,85387
268,"Desert Mosaic School",,"5757 W. Ajo Highway",,Tucson,AZ,85735
780,"Desert Mountain Before/after Care Program",,"35959 N 7th ave ",,Phoenix,AZ,85027
765,"Desert MountainBefore/After Care program",,"35959 N 7th Ave",,"Desert Hills",AZ,85086
4,"Desert Mountain Elementary School",,"22301 S. Hawes Road",,"Queen Creek",AZ,85242
1108,"Desert Oasis Elementary",,"17161 W Bajada Road",,Surprise,AZ,85371
1044,"Desert Oasis Elementary School",,"8802 W. McDowell Rd. ",,"Phoenix ",AZ,85037
408,"Desert Sage Elementary School",,"4035 W. Alameda",,Glendale,AZ,85310
367,"Desert Shadows Elementary",,"5902 E. Sweetwater",,Scottsdale,AZ,85254
632,"Desert Springs Elementary School",,"6010 E. Acoma",,Scottsdale,AZ,85254
615,"Desert Star School",,"2131 S 157th Ave",,Goodyear,AZ,85338
161,"Desert Sun Academy",,"27880 N 64th St",,Scottsdale,AZ,85262
379,"Desert Trails Elementary",,"4315 E. Cashman Drive",,Phoenix,AZ,85050
414,"Desert View Elementary School",,"8621 N. 3rd Streeet",,Phoenix,AZ,85020
672,"Desert View Elementary School",,"1508 N 10th Ave",,"San Luis",AZ,85349
706,"Desert View Elementary School",,"8621 N. 3rd Street",,Phoenix,AZ,85020
543,"Desert View School",,"8621 N. 3rd Street",,Phoenix,AZ,85020
439,"Desert Vista Elementary",,"3701 E. Broadway Ave.",,"Apache Junction",AZ,85210
272,"Desert Willow Elementary",,"4322  E. Desert Willow Parkway",,"Cave Creek",AZ,85331
419,"Desert Willow Elementary School",,"9400 E Esmond Loop",,Tucson,AZ,85747
156,"Diamond Canyon School",,"40004 N Liberty Bell Way",,Phoenix,AZ,85086
111,"Dietz Elementary School",,"7575 E. Palma",,Tucson,AZ,85710
1087,"DISCOVER Summer",,"108 N. 40th Street",,Phoenix,AZ,85034
84,"Discovery Elementary School",,"7910 W. Maryland Ave.",,Glendale,AZ,85303
489,"Discovery Learning Center",,"6601 E. Broadway blvd",,tucson,AZ,85710
428,"Discovery Learning Center",,"6601 E. broadway",,Tucson,AZ,85710
431,"Discovery Time Childcare",,"1425 W Southern"," #7",Tempe,AZ,85282
1127,"Dobson Academy Charter school",,"2207 N Dobson Rd",,Chandler,AZ,85224
733,"Dobson Montessori Elementary and Jr.  High School",,"745 S. Extension",,Mesa,AZ,85210
732,"Dobson Montessori Preschool",,"1130 S. San Jose",,Mesa,AZ,85202
1114,"Donaldson Before and After School Program",,"2040 W. Omar Rd.",,Tucson,AZ,85704
1035,"Donaldson School Age Program",,"2040 W. Omar Drive",,Tucson,AZ,85704
857,"Dreaming Summit Elementary",,"13335 W. Missouri Ave",,"Litchfield Park",AZ,85340
595,"Drexel Heights Community Center",,"5220 S. San Joaquin Ave.",,Tucson,AZ,85746
224,"Dunham Elementary",,"9850 E. 29th St",,Tucson,AZ,85748
397,"Dysart Community Center",,"14414 N. El Mirage Rd.",,"El Mirage",AZ,85335
841,"Dysart Elementary",,"12950 W. Varney Rd.",,"El Mirage",AZ,85335
35,"Eagle College Prep Elementary",,"2450 W. South Mountain Avenue"," Building 1, Floor 2",Phoenix,AZ,85041
679,"Eagle Ridge Elementary School",,"19801 North 13th Street",,Phoenix,AZ,85024
455,"Early Bird Day Care and Learning Center",,"132 E Prince Rd",,Tucson,AZ,85705
855,"East Flagstaff Public Library",,"3000 N. 4th St.",,Flagstaff,AZ,86004
177,"East Valley JCC",,"908 N Alma School Road",,Chandler,AZ,85224
676,"Echo Mountain Elementary School",,"1811 E. Michigan Ave.",,Phoenix,AZ,85022-1399
552,"Edison Elementary",,"545 N Horne",,Mesa,AZ,85203
744,"Education and Community Services",,"33016 N. 60th Street",,Scottsdale,AZ,85266
303,"El Camino Baptist Church",,"7777 E. Speedway Blvd",,Tucson,AZ,85710
125,"El Grupo Clubhouse",,"23 W 4th St",,Tucson,AZ,85705
577,"Ellie Towne Flowing Wells Community Center",,"1660 W. Ruthrauff Rd.",,Tucson,AZ,85705
995,"El Pueblo Regional Center",,"101 W. Irvington ",,Tucson,AZ,85714
996,"El Rio Neighborhood Center",,"1390 W. Speedway",,Tucson,AZ,85745
1170,"Esmond Station Elementary School",,"9400 S. Atterbury Wash Way",,Tucson,AZ,85747
519,"Esperanza Elementary School",,"251 W. Mohawk Lane",,Phoenix,AZ,85027
1163,"Esperanza Elementary School",,"3025 W. McDowell Rd.",,Phoenix,AZ,85009
344,"Estrella Elementary School",,"2620 E. Liberty Lane",,Phoenix,AZ,85048
890,"Explorers In Learning",,"4723 E Union Hills Drive",,Phoenix,AZ,85050
510,"Faith Community Church",,"2551 W. Orange Grove Road",,Tucson,AZ,85741
262,"Family Life Academy/Preschool at Christ Community Church",,"7801 E. Kenyon Drive",,Tucson,AZ,85710
189,"Field Elementary",,"2325 E Adobe St",,Mesa,AZ,85213
760,"Fight Ready",,"2954 N Hayden Rd",,Scottsdale,AZ,85251
553,"Finley Farms Elementary",,"375 S Columbus Dr",,Gilbert,AZ,85296
582,"First Baptist Children's Center",,"4801 E. Brown Rd",,Mesa,AZ,85205
817,"Flagstaff Family YMCA",,"1001 N Turquoise",,Flagstaff,AZ,86001
854,"Flagstaff Public Library",,"300 W. Aspen Ave.",,Flagstaff,AZ,86001
670,"Flowing Wells Early Childhood Education Center  ",,"1444 W. Prince Road",,Tucson,AZ,85705
607,"Flowing Wells Junior HIgh",,"4545 n. La Cholla blvd",,tucson,AZ,85705
674,"Foothill Elementary School",,"15808 N. 63rd Ave.",,Glendale,AZ,85306
246,"Foothills Elementary School",,"17835 N 44th st",,Phoenix,AZ,85032
333,"Fort Mojave Indian Reservation",,"1603 Plantation","PO 6483","Mohave Valley",AZ,
755,"Foundation for Blind Children",,"1235 E. Harmont Drive",,Phoenix,AZ,85020
320,"Fountain of Life School",,"710 S Kolb Rd",,Tucson,AZ,85710
833,"Frances Brandon Pickett Elementary",,"22076 E. Village Loop Road",,"Queen Creek",AZ,85142
289,"freedom center",,"6930 e. golf links circle",,tucson,AZ,85730
575,"Freedom Center",,"5000 E. 29th St",,Tucson,AZ,85711
579,"Freedom Park Center",,"5000 E. 29th Street",,Tucson,AZ,85711
113,"Freestone Recreation Center",,"1141 E Guadalupe Rd",,Gilbert,AZ,85234
634,"Freestone Recreation Center",,"90 E Civic Center Dr",,Gilbert,AZ,85296
482,"Frontier Elementary School",,"21268 N. 81 Ave.",,Peoria,AZ,85383
570,"Fruchthendler Elementary School",,"7470 E. Cloud Road",,Tucson,AZ,85750
305,"Frye Elementary",,"801 E Frye Rd",,CHANDLER,AZ,
591,"Frye Elementary School",,"801 E. Frye Rd.",,Chandler,AZ,85225
374,"Fuller School",,"1975 E Cornell Dr",,Tempe,AZ,85283
503,"Fulton Elementary",,"4750 S Sunland dr",,chandler,AZ,85248
226,"Gale Elementary",,"678 S. Gollob Road",,Tucson,AZ,85710
930,"Ganado Intermediate School",,"P.O. Box 1757","Hwy 264",Ganado,AZ,86505
825,"Garcia Elementary ",,"1441 S. 27th Ave",,Phoenix,AZ,85009
506,Gateway,,"1100 North 35th Street",,Phoenix,AZ,85008
273,"Gila River Indian Community",,"116 South Holly Street",,Sacaton,AZ,85143
931,"Girl Scouts–Arizona Cactus-Pine Council","Girl Scouts–Arizona Cactus-Pine Council","119 E. Coronado Rd",,Phoenix,AZ,85004
731,"Girl Scouts at Bonillas Elementary ",,"4757 E. Winsett Blvd.",,"Tucson ",AZ,85711
727,"Girl Scouts at La Paloma Lakeside ",,"8140 E. Golf Links Rd.",,"Tucson ",AZ,85730
730,"Girl Scouts at Menlo Park Elementary ",,"1100 W. Fresno St.",,"Tucson ",AZ,85745
728,"Girl Scouts at Mission View Elementary ",,"2600 S. 8th Ave. ",,Tucson,AZ,85713
725,"Girl Scouts at Roadrunner Elementary ",,"16651 W. Calle Carmela",,Marana,AZ,85653
726,"Girl Scouts at Santa Clara Elementary",,"6910 S. Santa Clara Ave. ",,"Tucson ",AZ,85756
518,"Glendale Community Center",,"5401 W Ocotillo Rd",,Glendale,AZ,85301
459,"Glendale/Peoria Family YMCA",,"14711 North 59th Avenue",,Glendale,AZ,85306
812,"Glendale/Peoria Family YMCA",,"14711 N 59th Ave",,Glendale,AZ,85306
811,"Glendale/Peoria YMCA",,"14711 N. 59th Ave",,Glendale,AZ,85306
983,"Globe Public Library",,"339 S Broad Street",,Globe,AZ,85501
877,"Golden Gate Community Center ",,"1625 N. 39th Ave ",,Phoenix,AZ,85009
488,"Grayhawk Elementary",,"15032 N 32nd Street",,Phoenix,AZ,85032
768,"Greenbrier Before/After Care program",,"6150 W Greenbriar",,Glendale,AZ,85308
332,"Greenbrier Elementary",,"6150 W. Greenbriar",,Glendale,AZ,85086
630,"Greenbrier Elementary School",,"6150 W. Greenbriar Dr.",,Glendale,AZ,85308
502,"Green Fields Country Day School",,"6000 N Camino de la Tierra",,Tucson,AZ,85741
1144,"Greenway Middle School",,"3002 E Nisbet Road",,Phoenix,AZ,85032
693,"Griffith Elementary School",,"4505 East Palm Lane",,Phoenix,AZ,85008
263,"Grijalva Elementry School",,"1956 W Bagley Way",,Tucson,AZ,85746
312,"Hale Elementary School",,"1425 N 23 St",,mesa,AZ,85213
491,"HANCOCK ELEMENTARY",,"2425 S. PLEASANT DR.",,CHANDLER,AZ,85286
338,"Harelson Elementary School",,"826 W. Chapala Dr.",,Tucson,AZ,85704
1036,"Harelson School Age Program",,"826 W. Chapala Drive",,Tucson,AZ,85704
456,"Harold K. Smith Elementary School",,"6420 N Maryland Ave",,Glendale,AZ,85301
223,"Hartford Sylvia Encinas Elementary",,"700 N. Hartford Street",,Chandler,AZ,85225
578,"Ha:sañ Preparatory and Leadership School",,"1333 E. 10th St",,Tucson,AZ,85719
399,"Hawthorne Elementary",,"630 N Hunt Dr",,Mesa,AZ,85203
649,"Heritage Elementary School",,"N 125th Avenue",,Glendale,AZ,85307
1084,"Heritage Square",,"113 N. 6th Street",,Phoenix,AZ,85004
476,"Hermosa Vista",,"2626 N 24 St",,Mesa,AZ,85213
19,"Hidden Hills Elementary School",,"1919 E. Sharon",,Phoenix,AZ,85022
261,"High Desert Middle School",,"4000 High Desert Rd",,Globe,AZ,85501
203,"Highland Elementary",,"3042 E. Adobe",,Mesa,AZ,85213
769,"Highland Lakes Before/After Care program",,"19000 N 63rd Ave",,Glendale,AZ,85308
928,"Historic YWCA",,"738 N 5th Ave ","Suite 101c",Tucson,AZ,85705
42,"Hohokam Elementary School",,"8451 E. Oak Street",,Scottsdale,AZ,85257
458,"Hohokam Middle School",,"7400 S. Settler Ave.",,Tucson,AZ,85746
1037,"Holaway School Age Program",,"3500 N. Cherry Ave.",,Tucson,AZ,85719
548,"Holdeman School",,"1326 W 18th St.",,Tempe,AZ,85281
642,"Hollinger elementary",,"150 West Ajo Way",,Tucson,AZ,85713
406,"Hollinger Elementary",,"150 W. Ajo Way",,Tucson,AZ,85713
340,"Homer Davis Elementary",,"250 N. Romero Rd.",,Tucson,AZ,85705
150,"Hopi Elementary",,"5110 E. Lafayette Boulevard",,Phoenix,AZ,85018
711,"Horizon Park and Community Center",,"15444 N. 100th Street",,Scottsdale,AZ,85260
938,"Horizon School",,"8520 N 47th Avenue",,Glendale,AZ,85302
592,"Horseshoe Trails Elementary",,"5405 E. Pinnacle Vista",,Phoenix,AZ,85054
310,"Houston Elementary",,"500 E Houston",,Gilbert,AZ,85234
747,"Hudlow Elementary",,"502 N Caribe Ave",,Tucson,AZ,85710
625,"Hudson School",,"1325 E Malibu",,Tempe,AZ,85282
235,"Hughes Elementary School",,"700 N. Wilson Ave.",,Tucson,AZ,85719
219,"Hull Elementary",,"2424 E Marin Dr.",,Chandler,AZ,85249
405,"Humane Society of Southern Arizona Shelter",,"3450 North Kelvin Blvd",,Tucson,AZ,85716
66,"Humphrey Elementary School",,"125 S. 132nd Street",,Chandler,AZ,85225
654,"Hurley Ranch Elementary School",,"8950 W. Illlini St",,Tolleson,AZ,85353
371,"Hurley Ranch Elementary School",,"8950 W. Illini St.",,Tolleson,AZ,85353
735,"ICAN: Positive Programs for Youth",,"650 E. Morelos St.",,Chandler,AZ,85225
1045,"I Evolve Taekwond & Learning Center",,"18431 N 91ST AVE STE 3",,Peoria,AZ,85382
109,"Imagine Avondale",,"950 N. Eliseo C. Felix Jr. Way",,Avondale,AZ,85305
174,"Ina Levine Jewish Community Campus - Valley of the Sun Jewish Community Center",,"12701 N. Scottsdale Rd",,Scottsdale,AZ,85254
496,"Inca Elementary",,"23601 W. Durango",,Buckeye,AZ,85338
1141,"Inca Elementary",,"23601 W. Durango St.",,Buckeye,AZ,85326
756,"Indian Bend Elementary School",,"3633 E. Thunderbird Rd.",,Phoenix,AZ,85032
86,"International School for Peace",,"4625 E. River Rd.",,Tucson,AZ,85718
1056,"International School of Arizona","Escuela Internacional de Arizona","9128 E. San Salvador Drive",,Scottsdale,AZ,85258
562,"International School of Tucson",,"1730 North First Avenue",,Tucson,AZ,85719
1097,"IQ Abacus Math & Language School",,"430 W. Warner Road #103",,TEMPE,AZ,85284
1088,"IQ Abacus Math & Language School",,"4100 S. Lindsay Rd #111",,Gilbert,AZ,85297
270,"Ira A. Murphy Elementary",,"7231 W. North Ln",,Peoria,AZ,85345
209,"Ira Murphy Elementary",,"7231 W. North Lane",,Peoria,AZ,85345
758,"Ironwood Branch",,"1500 N. Colorado St.",,"Casa Grande",AZ,85122
283,"Irving Elementary",,"3220 E. Pueblo Ave",,Mesa,AZ,85204
251,"Isaac Middle School",,"3402 W.McDowell Rd.",,Phoenix,AZ,85009
44,"Ishikawa Elementary",,"2635 N 32 St",,Mesa,AZ,85213
834,"Jack Barnes Elementary",,"20750 s. 214th Street",,"Queen Creek",AZ,85142
381,"Jack L. Kuban Elementary School",,"3201 W. Sherman Way",,Phoenix,AZ,85009
970,"Jacobs/City YMCA Outreach Center",,"1010 E. Lind St. ",,Tucson,AZ,85705
967,"James 4-H Camp at Mingus Springs",,"5200 S. Forest Service Road 105",,"Prescott Valley",AZ,86315
1142,"Jasinski Elementary",,"4280 S. 246th Ave.",,Buckeye,AZ,85326
660,"J.B. Sutton Elementary School",,"1001 North 31st Avenue",,Phoenix,AZ,85009
325,"J.D. Hull Elementary",,"2424 E Maren Dr.",,Chandler,AZ,85249
420,"Jefferson Elementary",,"120 S. Jefferson",,Mesa,AZ,85208
916,"Jennifer Harris Program",,"201 W. Colfax Ave., Dept 1101",,"Denver, CO",CO,80202
330,"JFCS Job Development Program",,"9014 N. 23rd Ave"," #3",Phoenix,AZ,85021
661,"Joel D. Valdez Main Library ",,"101 N. STONE AVE",,TUCSON,AZ,85701
469,"John Jacobs Elementary School",,"14421 N. 23rd Ave.",,Phoenix,AZ,85023
213,"Johnson Elementary",,"3807 E Pueblo Ave",,Mesa,AZ,85206
724,"Johnson Primary School",,"6060 S. Joseph Ave.",,"Tucson ",AZ,85757
586,"Johnson Primary School",,"6060 S. Joseph Ave.",,Tucson,AZ,85757
614,"Jordan Elementary",,"3320 N Carriage Lane",,Mesa,AZ,85224
1167,"Joseph Zito Elementary School",,"4525 West Encanto Blvd.",,Phoenix,AZ,85035
181,"J. Robert Hendricks Elementary School",,"3400 W. Orange Grove Rd.",,Tucson,AZ,85741
1150,"JTED @ Camino Seco",,"8727 E. 22nd Street",,Tucson,AZ,85710
1154,"JTED @ Empire",,"10701 E. Mary Ann Cleveland Way",,Vail,AZ,85641
1151,"JTED @ Flowing Wells",,"3725 North Flowing Wells Road",,Tucson,AZ,85705
1152,"JTED @ Mountain View",,"3901 W. Linda Vista Blvd.",,Tucson,AZ,85742
1156,"JTED @ Sahuarita",,"350 W. Sahuarita Road",,Sahuarita,AZ,85629
1153,"JTED @ Santa Rita ",,"3951 South Pantano Road",,Tucson,AZ,85730
1155,"JTED @ Walden Grove",,"15510 S. Sahuarita Park Rd",,Sahuarita,AZ,85629
1024,"Junior Achievement of Arizona",,"636 W Southern Avenue",,Tempe,AZ,85282
191,"Kachina Elementary School",,"5304 W. Crocus",,Glendale,AZ,85306
647,"Kathy's Korner Family Day Care",,"11840 n tami place",,tucson,AZ,85737
353,"Katie's Family Child Care",,"12162 N Sterling Ave",,"Oro Valley",AZ,85755
554,"Keller Elementary",,"1445 E Hilton",,Mesa,AZ,85204
453,"Kerr Elementary",,"125 E McLellan Rd",,Mesa,AZ,85201
710,Kiddyland,,"9671 E Banbridge",,Tucson,AZ,85747
922,"Kids and Company Miller Valley",,"900 Iron Springs Road",,Prescott,AZ,86305
923,"Kids and Company Washington",,"300 Gurley Street",,Prescott,AZ,86301
691,"Kids can Doodle",,"3552 West Glendale Avenue",,phoenix,AZ,85051
682,"Kids can Doodle",,"2200 North Arizona Avenue",,chandler,AZ,85225
667,"Kids Can Doodle",,"1255 West Elliot Road",,tempe,AZ,85224
662,"Kids Can Doodle",,"1100 Southern Avenue",,Mesa,AZ,85210
742,"Kid's Club-Bobcat Club","Black Mountain Elementary","33606 N. 60th St.",,Scottsdale,AZ,85266
1016,"Kids Club - Centennial Elementary (HUSD)",,"3507 S. Ranch House Pkwy",,Gilbert,AZ,85297
1017,"Kids Club - Chaparral Elementary (HUSD)",,"3380 E. Frye Road",,Gilbert,AZ,85295
1018,"Kids Club - Coronado Elementary (HUSD)",,"4333 S. De Anza Blvd.",,Gilvert,AZ,85297
1019,"Kids Club - Cortina Elementary (HUSD)",,"19680 S. 188th Street",,"Queen Creek",AZ,85242
1020,"Kids Club - Gateway Pointe Elementary",,"2069 S. De la Torre Dr.",,Gilbert,AZ,85295
1021,"Kids Club - Higley Elementary and Middle School (HUSD)",,"3391 E. Vest Ave.",,Gilbert,AZ,85295
1022,"Kids Club - Power Ranch Elementary (HUSD)",,"4351 S. Ranch House Pkwy",,Gilbert,AZ,85297
1023,"Kids Club - San Tan Elementary",,"3443 E. Calistoga Dr.",,Gilbert,AZ,85297
285,"Kids First Preschool",,"8185 E. 22nd St",,Tucson,AZ,85710
981,"Kids Talk, Speech and Language Pathology Services",,"10617 N Hayden Road, B-108",,Scottsdale,AZ,85260
197,"Kidz Kampus",,"8215 W. Indian School Road",,Phoenix,AZ,85033
249,"Killip Elementary School",,"2300 E. 6th Ave",,Flagstaff,AZ,86004
352,KinderCare,,"3107 E. Pima St.",,Tucson,AZ,85716
498,KinderCare,,"1802 E. Irvington Rd.",,Tucson,AZ,85714
623,"Kinder care learning center",,"1802 e. Irvington Rd",,Tucson,AZ,85714
190,"KinderCare - Oro Valley",,"10455 N. LaCanada Dr.",,"Oro Valley",AZ,85737
843,"Kingswood Elementary",,"15150 W. Mondell Rd.",,Surprise,AZ,85374
119,"Kino Campus",,"2805 E. Ajo Way",,Tucson,AZ,85713
910,"Kinsey FACTS",,"1601 S. Lone Tree ",,Flagstaff,AZ,86001
196,"Kiva Elementary School",,"6911 E. McDonald Drive",,"Paradise Valley",AZ,85253
784,"Knoles FACTS",,"4005 E. Butler Ave.",,Flagstaff,AZ,86004
16,"Knowledge Universe",,"7251 N Meredith Blvd",,Tucson,AZ,85741
688,"Kuban Elementary School",,"3201 West Sherman Street",,Phoenix,AZ,85009
648,"Kumon of Tucson Casas Adobes",,"6004 N Oracle Rd",,Tucson,AZ,85704
1028,"Kyrene Akimel A-al",,"Kyrene Akimel A-al","2720 E. Liberty Lane ","Phoenix ",AZ,85048
1029,"Kyrene Aprende",,"777 N. Desert Breeze Blvd. East #2",,Chandler,AZ,85044
1030,"Kyrene Centennial",,"13808 South 36th Street",,"Phoenix ",AZ,85044
464,"Kyrene de la Colina Elementary School",,"13612 S. 36th St.",,Phoenix,AZ,85044
671,"Kyrene De La Esperanza",,"14841 S. 41st Place",,Phoenix,AZ,85044
141,"Kyrene de la Mariposa",,"50 E. Knox Rd",,Tempe,AZ,85284
2,"Kyrene de la Mirada",,"5500 W. Galveston Street",,Chandler,AZ,85226
423,"Kyrene de la Paloma",,"5000 W. Whitten",,Chandler,AZ,85226
309,"Kyrene de las Brisas Elementary School",,"777 N. Desert Breeze Blvd. ","East #1",Chandler,AZ,85226
425,"Kyrene de la Sierra",,"1122 E. Liberty Lane",,Phoenix,AZ,85048
665,"Kyrene de las Lomas Elementary School",,"11820 S. Warner-Elliot Loop",,Phoenix,AZ,85044
407,"Kyrene de las Manitas",,"1201 W Courtney Ln",,Tempe,AZ,85284
610,"Kyrene del Cielo Elementary",,"1350 N. Lakeshore Drive",,Chandler,AZ,85226
363,"Kyrene del Norte",,"1331 E Redfield Rd",,Tempe,AZ,85283
169,"Kyrene del Norte Elementary",,"1331 E Redfield",,tempe,AZ,85283
277,"Kyrene de los Lagos Elementary School",,"17001 S. 34th Way",,Phoenix,AZ,85048
430,"Kyrene de los Ninos",,"1330 E Dava Dr",,Tempe,AZ,85283
233,"Kyrene de los Ninos",,"1330 E. Dava Dr.",,Tempe,AZ,85283
256,"Kyrene del Sureno",,"3375 W. Galveston Street",,Chandler,AZ,85226
1031,"Kyrene Middle School College Preparatory Academy",,"1050 E. Carver Road ",,Tempe,AZ,85284
386,"Kyrene Monte Vista",,"15221 S Ray Road",,Phoenix,AZ,85048
389,"Kyrene Monte Vista",,"15221 S. Ray Road",,Phoenix,AZ,85048
477,"La Cima Middle School",,"5600 N. La Canada Blvd",,Tucson,AZ,85704
493,"Laguna Elementary",,"5001 N Shannon Rd.",,Tucson,AZ,85705
259,"Laguna Elementary",,"5001 N. Shannon Rd.",,Tucson,AZ,85705
525,"Laguna Elementary School",,"10475 E.Lakeview Drive",,Scottsdale,AZ,85258
573,"Laguna Elementary School",,"5001 N. Shannon",,Tucson,AZ,85705
463,"La Joya Community High School",,"11650 West Whyman Avenue",,Avondale,AZ,85323
40,"Lake Pleasant Elementary",,"31501 N. Westland Rd.",,Peoria,AZ,85383
499,"Lakeview Elementary School",,"3040 West Yucca",,Phoenix,AZ,85029
766,"La Paloma Family Services",,"870 W Miracle Mile",,Tucson,AZ,85705
43,"La Petite Academy",,"7930 N Thornydale Rd",,Tucson,AZ,85741
288,"La Petite Academy",,"8940 E Tanque Verde",,Tucson,AZ,85749
124,"La Petite Academy",,"1155 N. Sarnoff Dr",,Tucson,AZ,85715
424,"La Petite Academy in Scottsdale",,"8433 E Raintree Drive",,Scottsdale,AZ,
645,"Larkspur Elementary School",,"2430 E. Larkspur Dr.",,Phoenix,AZ,85032
684,"Larry C Kennedy",,"2702 East Osborn Road",,Phoenix,AZ,85016
770,"Las Brisas Before/After care program",,"5805 W Alameda Rd",,Glendale,AZ,85310
290,"Las Sendas Elementary",,"3120 N Red Mtn.",,Mesa,AZ,85207
886,"Laveen Elementary School",,"4141 West McNeil Street",,laveen,AZ,85339
955,"LeChee Youth Center",,"5 MI S of Page on Coppermine Rd","5 MI S of Page on Coppermine Rd",LeChee,AZ,86040
906,"Legacy Foundation Chris-town YMCA",,"5517 North 17th Avenue  ",,Phoenix,AZ,"85015 "
810,"Legacy Foundation Chris-Town YMCA",,"5517 N. 17th Avenue",,Phoenix,AZ,85015
25,"Legend Springs Elementary",,"21150 N. Arrowhead Loop Road",,Glendale,AZ,85308
507,"Lehi Community Center",,"1231 E Oak St",,Mesa,AZ,85203
1126,"LESD #59 Desert Medows Kids Klub",,"6855 W Meadows Loop East",,Laveen,AZ,85339
888,"LESD #59 Trailside Point Kids Klub",,"7275 West Vineyard Road",,Laveen,AZ,85339
912,"Leupp FACTS",,"40 East of Flagstaff","Navajo Reservation",Leupp,AZ,86004
914,"Leupp FACTS",,"40 Miles east of Flagstaff","Navajo Reservation",Leupp,AZ,86004
241,"Liberty Elementary",,"5125 E. Marilyn Road",,Scottsdale,AZ,85254
963,"Lighthouse/City YMCA",,"2900 N. Columbus",,Tucson,AZ,85712
721,"Lil Squirts Preschool",,"1003 E. Eason Ave.",,Buckeye,AZ,85326
821,"Lincoln Family Downtown YMCA","Early Education and Enrichment Center","350 N 1st Avenue",,Phoenix,AZ,85003
687,"Lincoln Learning Center",,"303 East Eva Street",,Phoenix,AZ,85020
373,"Lineweaver Elementary",,"461 S Bryant",,Tucson,AZ,
856,"Litchfield Elementary School",,"255 E. Wigwam Blvd",,"Litchfield Park",AZ,85340
556,"Litchfield Park Recreation Center",,"100 S. Old Litchfield Rd",,"Litchfield Park",AZ,85340
471,"Little Angels Preschool",,"2802 W. Alvaro Rd.",,Tucson,AZ,85746
14,"Little Joys Learning Center",,"1902 W Calle Del Arroyito",,Tucson,AZ,85713
47,"Little Ranch School",,"1125 E Glenn",,Tucson,AZ,85719
58,"Little Sprouts Child Care Center",,"1010 E. Broadway Blvd.",,Tucson,AZ,85719
350,"Littletown Neighborhood Center",,"6465 S. Craycroft Rd",,Tucson,AZ,85706
680,"Loma Linda",,"2002 E. Clarendon Avenue",,Phoenix,AZ,85016
378,"Lone Mountain Elementary",,"5250 East Montgomery Road",,"Cave creek",AZ,85331
426,"Longfellow Elementary",,"345 S. Hall St.",,Mesa,AZ,85204
1085,"Lookout Mountain Elementary School",,"15 W. Coral Gables Dr. ",,Phoenix,AZ,85023
400,"Lookout Mountain School",,"222 Coral Gables",,,AZ,85023
723,"Los Ninos Elementary School",,"5445 S. Alvernon Way ",,Tucson,AZ,85706
215,"Lowell Elementary School",,"920 East Broadway Rd.",,Mesa,AZ,85204
845,"Luke Elementary",,"7300 N. Dysart Rd.",,Glendale,AZ,85307
924,"Lynn-Urquides Elementary School",,"1573 W. Ajo Way",,Tucson,AZ,85713
244,"Mabel Padgett Elem.",,"15430 W. Turney Ave",,Goodyear,AZ,85395
859,"Mabel Padgett Elementary",,"15430 W. Turney",,Goodyear,AZ,85395
535,"MacArthur Elementary",,"1435 E. McLellan Rd",,Mesa,AZ,
1110,"MACH1 Makerspace",,"Burton Barr Central Library","1221 N Central Ave",Phoenix,AZ,85004
402,"Madison Baptist Church",,"6202 N. 12th Street",,Phoenix,AZ,85014
942,"Madison Camelview",,"2002 E Campbell Ave",,Phoenix,AZ,85016
410,"Madison Elementary",,"849 S Sunnyvale",,Mesa,AZ,85206
195,"Madison Elementary School #1",,"5525 N. 16th Street",,Phoenix,AZ,85016
944,"Madison Heights",,"7150 N 22nd ST",,Phoenix,AZ,85020
948,"Madison Meadows",,"225 W Octotillo",,Phoenix,AZ,85013
945,"Madison Number 1",,"5525 N 16th ST",,Phoenix,AZ,85016
946,"Madison Park",,"1431 E Campbell",,Phoenix,AZ,85014
947,"Madison Rose Lane",,"1155 E Rose Lane",,Phoenix,AZ,85014
943,"Madison Simis",,"7302 N 10th ST",,Phoenix,AZ,85020
949,"Madison Traditional Academy",,"925 E Maryland",,Phoenix,AZ,85014
757,"Main Branch",,"798 N. Picacho Ave.",,85122,AZ,85122
748,"Maldonado Elementary",,"3535 W. Messala Way",,Tucson,AZ,85746
1132,"Manzanita Elementary",,"3000 E. Manzanita Ave.",,Tucson,AZ,85718
38,"Manzanita Elementary School",,"3000 E. Manzanita Ave",,Tucson,AZ,85718
230,"Manzanita Elementary School",,"8430 N. 39th Avenue",,Phoenix,AZ,85051
327,"Manzanita Elementary School",,"8430 N. 39th Ave",,Phoenix,AZ,85051
20,Mariposa,,"3500 S. Rural Rd",,Tempe,AZ,85283
842,"Marley Park Elementary",,"15042 W. Sweetwater Ave.",,Surprise,AZ,85379
473,"Marshall Elementary School",,"9066 E 29th St",,Tucson,AZ,85710
785,"Marshall FACTS",,"850 N. Bonito",,Flagstaff,AZ,86001
999,"Marty Birdman Neighborhood Center KIDCO",,"2536 N. Castro",,Tucson,AZ,85701
1120,"Mary Ellen & Robert McKee Branch",,"14605 N. Del Cambre Ave.",,"Fountain Hills",AZ,85268
31,"Maryland Elementary School",,"6503 N 21st Ave.",,Phoenix,AZ,85015
823,"Maryvale Family YMCA - Mike & Cindy Watts Branch",,"3825 N 67th Avenue",,Phoenix,AZ,85033
1007,"Mathnasium of Chandler",,"3875 W Ray Rd #12",,Chandler,AZ,85226
1026,"Mathnasium of mesa",,"1152 N. Power Road, Suite 103",,Mesa,AZ,85205
1009,"McGraw Discovery Club","McGraw Discovery Club","2345 Arizona Avenue",,Yuma,AZ,85364
162,"Mendoza Elementary",,"5831 E McLellan Rd",,Mesa,AZ,85205
294,"Menlo Park Elementary",,"1100 W. Fresno St.",,Tucson,AZ,85745
583,"Mercury Mine Elementary School",,"9640 North 28th ST",,Phoenix,AZ,85028
91,"Meridian Elementary",,"3900 S. Mountain Rd",,Mesa,AZ,85212
284,Mesa,,"3345 E. Downing St.",,Mesa,AZ,85213
568,"Mesa Boys & Girls Club",,"221 W. 6th Avenue",,Mesa,AZ,85210
953,"Mesa Family YMCA",,"207 N Mesa Drive",,Mesa,AZ,85201
422,"Mesa Verde Elementary School",,"1661 W. Sage St.",,Tucson,AZ,85704
1038,"Mesa Verde School Age Program",,"1661 W. Sage Street",,Tucson,AZ,85704
85,"Mesquite Elementary",,"1000 E Mesquite St",,Gilbert,AZ,85296
926,"Mesquite Elementary School",,"9455 E. Rita Rd.",,Tucson,AZ,85747
964,"Me The Artist",,"5355 E High St",#109,Phoenix,AZ,85054
354,"Meyer School",,"2615 S Dorsey",,Tempe,AZ,85282
590,"Miage Elementary School",,"3910 W. Grovers Ave.",,Glendale,AZ,85308
468,Midvale,,"6570 S Midvale Rd",,Tucson,AZ,85746
248,"Milenio Elementary School",,"4630 E. Frye Rd",,Phoenix,AZ,85282
447,"Miles Exploratory Learning Center",,"1900 E. Broadway Blvd.",,Tucson,AZ,85719
202,"Mill Avenue School",,"4431 S. Mill Ave.",,Tempe,AZ,85282
974,"Miller Elementary",,"6951 S. Camino de la Tierra",,"Tucson ",AZ,85746
749,"Miller Elementary",,"6957 S Camino de la Tierra ",,Tucson,AZ,85746
10,"Mini Skool Early Learning Center",,"1702 S Craycroft Rd.",,Tucson,AZ,85711
444,"Mirage Elementary",,"3910 W. Grovers",,Glendale,AZ,85308
1165,"Mitchell Elementary School",,"1700 North 41st Avenue",,Phoenix,AZ,85009
1066,"Mona Plummer Aquatic Center",,"601 South College ",,Tempe,AZ,85281
702,"Montecito Community School",,"715 E. Montecito Ave.",,Phoenix,AZ,85014
82,"Montessori de Santa Cruz Charter",,"18 Calle Baca",,Tubac,AZ,85646
427,"Montessori School of Flagstaff/  Westside location",,"575 W. University Ave.",,Flagstaff,AZ,86001
551,"Monte Vista Elementary School",,"15221 South Ray Rd",,Phoenix,AZ,85048
669,"Moon Mountain Elementary School",,"13426 N 19th Ave",,Phoenix,AZ,85029
24,"Morris K. Udall Escuela de Bellas Artes",,"3715 W. Roosevelt",,Phoenix,AZ,85009
140,"Morristown Elementary School",,"25950 N. Rockaway Hills Drive",,Morristown,AZ,85342
993,"Mosaic Arts Center",,"12 E. Western Ave",,Avondale,AZ,85323
772,"Mountain Shadows Before/After Care program",,"19602 N 45th Ave",,Glendale,AZ,85308
193,"Mountain Shadows Elementary",,"19602 N. 45th Ave",,Glendale,AZ,85308
516,"Mountain Trail Middle School",,"2323 E. Mountain Gate Pass rd.",,,AZ,85024
490,"Mountain View Baptist,  El Camino Baptist and Sahuarita Intermediate School",,"6318 E Broadway Blvd",,Tucson,AZ,85710
740,"Mountain View Community Center",,"8625 E. Mt. View Rd.",,Scottsdale,AZ,85258
844,"Mountain View Elementary",,"18302 W. Burton Ave.",,Waddell,AZ,85355
705,"Mountain View School",,"801 W. Peoria Avenue",,Phoenix,AZ,85029
1168,"Moya Elementary School",,"406 North 41st Avenue",,Phoenix,AZ,85009
114,"Mulcahy/City YMCA",,"5085 S. Nogales Hwy.",,Tucson,AZ,85706
713,"Musical Surprise",,"16846 W. Bell Rd., Ste 106",,Surprise,AZ,85374
975,"Myers Neighborhood",,"5000 E Andrew St",,"Tucson ",AZ,85711
934,"NACA ",,"2717 North Steves ","Ste. #11",flagstaff,AZ,86004
1107,"Nadaburg Elementary",Nadaburg,"21419 W Dove Valley Road",,Wittmann,AZ,85361
1109,"Narthex Youth Center",,"6659 E. University Drive",,Mesa,AZ,85205
549,"Nash elem.",,"242 w. lester street",,Tucson,AZ,85705
1049,"Native American COnnections Coral Canyon Complex",,"4545 N. 15th Street",,Phoenix,AZ,85014
1048,"Native American Connections Whispering Palms Complex",,"1650 E. Georgia Ave",,Phoenix,AZ,85016
102,"Navajo Elementary School",,"4525 N. Granite Reef Rd",,Scottsdale,AZ,85251
558,"Navarrete Elementary",,"6490 S Sun Groves Blvd",,Chandler,AZ,85249
690,"New Life Day Care",,"330 W. Nebraska St.",,Tucson,AZ,85706
1106,"New Pathways for Youth",,"1001 E. Pierce St.",,Phoenix,AZ,85006
1100,"New Way Academy",,"5048 East Oak Street",,Phoenix,AZ,85008
891,NiJeL,.0,"630 Flushing Ave.",,Brooklyn,NY,11206
328,"Nina Mason Pulliam Rio Salado Audubon Center",,"3131 S. Central Ave.",,Phoenix,AZ,85040
530,"Norterra Canyon",,"2200 W Maya Way",,Phoenix,AZ,85085
274,"Northeast Elementary",,"7042 East Adobe",,Mesa,AZ,85207
737,"Northern Arizona College Resource Center",,"1001 North Turquoise Dr.",,Flagstaff,AZ,86001
544,"North Ranch Elementary",,"16406 N. 61st Place",,Scottsdale,AZ,85254
1092,"North Scottsdale United Methodist",,"11735 North Scottsdale Road",,Scottsdale,AZ,85254
1073,"North Scottsdale United Methodist Church",,"11735 N Scottsdale Rd",,Scottsdale,AZ,85254
449,"North Tempe Multigenerational Center",,"1555 N. Bridalwreath St.",,Tempe,AZ,85008
474,"Northwest Center",,"2160 N. 6th Ave",,Tucson,AZ,
441,"Nosotros campus",,"440 N Grande Ave",,Tucson,AZ,85745
475,"Oakwood Elementary",,"12900 N. 71 Ave",,Peoria,AZ,85345
187,"Oasis Elementary",,"7841 W. Sweetwater",,Peoria,AZ,85345
46,"O'Conner Elementary",,"4840 E. Adobe",,Mesa,AZ,85205
391,"Ocotillo Elementary School",,"3225 W. Ocotillo Rd",,Phoenix,AZ,85017
689,"Ocotillo Elementary School",,"3225 W Ocotillo Rd",,Phoenix,AZ,85017
167,"Ocotillo Ridge Elementary School",,"10170 S. White Lightning Ln.",,Vail,AZ,85641
170,"O'Neil Recreation Center",,"6448 W. Missouri Ave.",,Glendale,AZ,85301
715,"one n ten",,"3660 N 3rd St",,Phoenix,AZ,85012
377,"Orangewood Elementary School",,"7337 N. 19th Ave",,Phoenix,AZ,85021
1075,"Osborn Campus",,"7507 E Osborn Rd",,Scottsdals=e,AZ,85251
1010,"Otondo Discovery Club","Otondo Discovery Club","2251 Otondo Drive",,"Yuma, ",AZ,85365
492,"Oury Recreation Center",,"600 W. St. Mary's Rd.",,Tucson,AZ,85701
52,"Outer Limits School",,"3472 E. Ft. Lowell Rd",,Tucson,AZ,85716
138,"Outpatient Services, Tucson, AZ",,"1779 W. St. Marys",,Tucson,AZ,85745
708,"Oxford Learning Center",,"8889 E Bell Road",,Scottsdale,AZ,85260
511,"Oyama Elementary",,"2700 S La Cholla Blvd",,Tucson,AZ,85713
797,"PAC - Creighton",,"2802 E. McDowell Road",,Phoenix,AZ,85008
795,"PAC - Harris",,"2252 N. 55th Avenue",,Phoenix,AZ,85035
794,"PAC - Nevitt",,"4525 East Saint Anne",,Phoenix,AZ,85042
798,"PAC - Village Meadows",,"2020 W. Morningside Drive",,Phoenix,AZ,85023
1027,"Page Middle School",,"101 El Mirage Street",,Page,AZ,86040
1039,"Painted Sky School Age Program",,"122620 N. Woodbourne Ave.",,Tucson,AZ,85737
1011,"Palmcroft Discovery Club","Palmcroft Discovery Club","901 Palmcroft Drive",,Yuma,AZ,85364
860,"Palm Valley Elementary ",,"2801 N. 135th Ave",,Goodyear,AZ,85395
432,"Paloma Elementary School",,"1122 E.Liberty Lane",,Chandler,AZ,85226
429,"Palomino Elementary School",,"15815 N. 29th St.","Building F",Phoenix,AZ,85032
675,"Palomino Intermediate School",,"15815 N. 29th Street",,Phoenix,AZ,85032
973,"Palo Verde Magnet High School",,"1302 S. Avenida Vega",,"Tucson ",AZ,85701
385,"Palo Verde Middle School",,"7502 N. 39th Ave.",,Phoenix,AZ,85051
17,"Papago Elementary School",,"2013 N 36th Street",,Phoenix,AZ,85008
275,"Paradise Educaiton Center",,"15533 West Paradise Lane",,Surprise,AZ,85374
231,"Paradise Education Center",,"15533 W paradise ln",,Surprise,AZ,85374
208,"Paradise Valley High School",,"3950 E. Bell Road",,Phoenix,AZ,85032
915,"Paradise Valley School of Karate",,"13647 N 32nd St",,Phoenix,AZ,85032
774,"Park Meadows Before/after care program",,"20012 N 35th ave",,"Glendale ",AZ,85308
59,"Parkridge Elementary",,"9970 W. Beardsley Rd.",,Peoria,AZ,85383
846,"Parkview Elementary",,"16066 N. Parkview Pl.",,Surprise,AZ,85374
435,"Pascua Neighborhood (Cultural) Center, a facility of Tucson Parks & Rec",,"785 W. Sahuaro St.",,Tucson,AZ,85705
773,"Paseo Hills Before/after Care program",,"3302 W Louise Dr ",,Phoenix,AZ,85027
504,"Paseo Hills School",,"3302 W. Louise Dr.",,Phoenix,AZ,85027
567,"Patterson Elementary",,"1211 East Guadalupe Road",,Gilbert,AZ,85233
370,"Patterson Elementary",,"615 S Cheshire",,Mesa,AZ,85208
683,"Pena Elementary",,"2550 N. 79th Ave",,Phoenix,AZ,85035
1065,"Peoria Center for the Performing Arts",,"8355 W Peoria Ave",,Peoria,AZ,85345
120,"Peoria Elementary",,"11501 N. 79th Ave.",,Peoria,AZ,85345
1171,"Peoria High School",,"11200 N. 83rd Ave.",,"Peoria ",AZ,85345
481,"Peter Howell Elementary",,"401 N. Irving",,Tucson,AZ,85711
242,"P.H. Gonzales Elementary",,"9401 W. Garfield",,Tolleson,AZ,85353
903,"Phoenix Burton Barr Library",,"1221 N. Central Ave.",,Phoenix,AZ,85003
703,"Phoenix Conservatory of Music",,"7801 North Black Canyon Highway","Ste. C",Phoenix,AZ,85021
1162,"Phoenix Conservatory of Music (Main Campus)",,"9617 N. Metro Parkway West","Suite 2000",Phoenix,AZ,85051
133,"Phoenix Day Child & Family Learning Center",,"115 E. Tonto St.",,Phoenix,AZ,85004
1135,"Phoenix Herpetological Society",,"20701 N. Scottsdale Road","Suite 107 - 401",Scottsdale,AZ,85255
965,"Phoenix Theatre",,"100 E. McDowell RD",,Phoenix,AZ,85004
966,"Phoenix Zoo",,"455 N. Galvin Parkway",,Phoenix,AZ,85008
738,"Phone Friend",,"3910 S. Rural Rd., Suite E",,"Tempe,",AZ,85282
418,"Picture Rocks Community Center",,"5615 N. Sanders Road",,Tucson,AZ,85743
528,"Pima County 4-H Cooperative Extension Office",,"4210 N Campbell Ave",,Tucson,AZ,85719
1149,"Pima County JTED",,"2855 W. Master Pieces Drive",,Tucson,AZ,85741
808,"Pima County ONESTOP at Rio Nuevo","ONESTOP del Condado de Pima","340 N Commerce Park Loop",,Tucson,AZ,85745
550,"Pima Elementary School",,"8330 e osborn",,scottsdale,AZ,85251
394,"Pima Park",,"8600 E. Thomas Rd",,Scottsdale,AZ,85251
1161,"Pima Partnership Academy",,"1346 N. Stone Ave",,Tucson,AZ,85705
54,"Pima Partnership School",,"1346 N. Stone",,Tucson,AZ,85705
179,"Pio Decimo Center",,"848 S. 7th Ave.",,Tucson,AZ,85701
574,"Pioneer Elementary School",,"1535 N Greenfield Rd",,Gilbert,AZ,85234-8532
512,"Pioneer Preparatory",,"6510 W. Clarendon",,Phoenix,AZ,85033
33,"Playa Del Rey",,"550 n horne",,gilbert,AZ,85263
104,"Pomeroy Elementary",,"1507 W Shawnee",,Mesa,AZ,85224
142,Porter,,"1350 S. Lindsay St",,Mesa,AZ,85204
509,"Premier Children's Center",,"3335 W. Greenway",,Phoenix,AZ,85053
279,"Primrose School of Fletcher Heights",,"8270 W. Lake Pleasant Pkwy.",,Peoria,AZ,85382
401,"Prince Elementary School",,"125 E Prince",,,AZ,85705
221,"Private business building",,"511 W Guadalupe Rd"," #12",Gilbert,AZ,85234
255,"Private Facility",,"516 S, Dobson Rd.",,Mesa,AZ,85202
56,"P.T.Coe Elementary School",,"3801 W. Roanoke",,Phoenix,AZ,85019
505,Pueblo,,"6320 North 82nd Street",,Scottsdale,AZ,85250
1166,"Pueblo Del Sol School",,"3449 North 39th Avenue",,Phoenix,AZ,85019
253,"Pueblo Elementary",,"6320 North 82nd",,Scottsdale,AZ,85282
154,"Pueblo Gardens K-8 School",,"2210 E 33rd St",,Tucson,AZ,85713
1071,"Pueblo Grande Museum",,"4619 E Washington St",,Phoenix,AZ,85034
457,"Pueblo High School",,"3500 S 12th Avenue",,Tucson,AZ,85713
786,"Puente de Hozho",,"3401 N. 4th St.",,Flagstaff,AZ,86001
576,"Quail Run Elementary School",,"3303 E. Utopia Rd.",,Phoenix,AZ,85050
1093,"Quartz Hill Elementary",,"3680 S Quartz St,",,gilbert,AZ,85297
446,"Quartz Hill Elementary School",,"3680 S. Quartz St.",,Gilbert,AZ,85297
831,"Queen Creek Elementary School",USA,"23636 S. 204th Street",,"Queen Creek",AZ,85142
319,"Queen Creek Middle School (QCMS)",,"20435 S. Ellsworth Rd.",,"Queen Creek",AZ,85142
1000,"Quincie Douglas Neighborhood Center",,"1575 E. 36th St",,Tucson,AZ,85713
847,"Rancho Gabriela Elementary",,"15272 W. Gabriela Dr.",,Surprise,AZ,85374
864,"Rancho Santa Fe Elementary",,"2150 N. Rancho Santa Fe Trail",,Avondale,AZ,85392
1157,"Randolph Recreation Center",,"200 S. Alvernon Way ",,Tucson,AZ,85711
387,"Randolph Regional Recreation Center",,"200 S. Alvernon Way",,Tucson,AZ,85711
269,"Redbird Elementary",,"1020 S. Extension",,Mesa,AZ,85210
1089,"Redemption Church Tempe",,"2150 E Southern Ave",,Tempe,AZ,85282
178,"Redfield Elementary",,"9181 E. Redfield Rd.",,Scottsdale,AZ,85260
986,"Red Mountain Branch",,"11889 E. Lakeview Dr.",,Scottsdale,AZ,85256
238,"Red Mountain Branch",,"11889 E. Glenrosa Dr.",,Scottsdale,AZ,85256
933," Red Mountain Center",,"7550 East Adobe Street",,Mesa,AZ,85207
515,"Red Mtn Ranch",,"6650 E Raftriver",,Mesa,AZ,85215
627,"Rhythm Industry Performance Factory",,"1013 S Tyndal Ave",,Tucson,AZ,85719
265,"Richard E Miller School",,"2021 W Alice",,Phoenix,AZ,85021
199,"Richardson Elementary",,"6901 N. Camino de la Tierra",,Tucson,AZ,85741
1124,"Richardson Y.E.S.",,"6901 N. Camino De La Tierra",,Tucson,AZ,85705
1060,"Ridgeline Academy",,"33625 N N Valley Pkwy",,"Phoenix ",AZ,85085
1063,"Ridgeline Academy",,"33625 N North Valley Pkwy",,Phoenix,AZ,85085
557,"Riggs Elementary School",,"6930 S. Seville Blvd.",,Gilbert,AZ,85298
879,"Riverview Elementary School",,"12701 N Main St",,"El Mirage",AZ,85335
74,"Roadrunner Elementary School",,"7702 North 39th Avenue",,Phoenix,AZ,85051
403,"Robins Elementary School",,"3939 N. Magnetite",,Tucson,AZ,85745
714,"Robles Elementary",,"9875 South Sasabe Rd",,Tucson,AZ,85736
250,"Robles Elementary School",,"9875 S. Sasabe Rd.",,Tucson,AZ,85735
293,"Robles Ranch Community Center",,"16150 W. Ajo Hwy",,Tucson,AZ,85735
27,"Robson Elementary",,"2122 E Pueblo",,Mesa,AZ,85204
887,"Rogers Ranch School",,"6735 South 47th Avenue",,Laveen,AZ,85339
1012,"Rolle Discovery Club","Rolle Discvery Club","2711 Engler Avenur",,Yuma,AZ,85365
7,"Roosevelt Elementary School",,"828 S. Valencia",,Mesa,AZ,85206
126,"Rose Lane Branch",,"8250 E. Rose Lane",,Scottsdale,AZ,85250
952,"Ross Farnsworth - East Valley YMCA",,"1807 S Sunview",,Mesa,AZ,85206
266,Rover,,"1300 E Watson Dr",,Tempe,AZ,85283
539,"Rover Elementary",,"1300 E. Watson Drive",,Tempe,AZ,85283
602,"Royal Palm Middle School",,"8520 N. 19th Ave.",,Phoenix,AZ,85021
135,"Roy Drachman Clubhouse",,"5901 S. Santa Clara",,Tucson,AZ,85746
358,"Sahuarita Early Childhood Center",,"52 W. Calle De los Tiendas",,"Green Valley",AZ,85614
972,"Sahuaro High School",,"545 N Camino Seco",,"Tucson ",AZ,85710
254,"Sahuaro Ranch Elementary",,"10401 N 63rd Ave",,Glendale,AZ,85302
212,"Salk Elementary",,"7009 E. Brown",,Mesa,AZ,85207
204,"Salpointe Catholic High School",,"1545 E Copper",,Tucson,AZ,85719
324,"Sam Hughes Elementary School",,"700 N. Wilson",,Tucson,AZ,85719
129,"Sanborn Elementary",,"700 S. Superstition Dr",,Chandler,AZ,85225
620,"Sandpiper Elementary",,"6724 E. Hearn",,Scottsdale,AZ,85254
941,"San Francisco De Asis School",,"320 320 N Humphreys St.",,Flagstaff,AZ,86001
21,"Santa Cruz Catholic School",,"29 W. 22nd. St.",,Tucson,AZ,85713
287,"Santa Cruz Elementary School",,"19845 N. Costa del Sol Blvd.",,Maricopa,AZ,85138
342,"Santa Fe Elementary",,"9880 N. 77 Ave",,Peoria,AZ,85345
900,"Santan Elementary",,"1550 E Chandler Hts Road",,Chandler,AZ,85249
612,"Santa Rosa Neighborhood Center",,"1080 S. 10th Ave",,,AZ,85701
1158,"Santa Rosa Recreation Center KIDCO",,"1080 S. 10th Ave",,Tucson,AZ,85701
692,"Satori School",,"3801 N. 1st Ave.",,Tucson,AZ,85719
495,"Scales School of Technology",,"1115 W Fifth St",,Tempe,AZ,85281
635,"Scales Technology Academy",,"1115 W. Fifth St",,Tempe,AZ,85281
147,"Schumaker Elementary School",,"501 N. Maguire Ave",,Tucson,AZ,85710
862,"Scott Libby Elementary",,"18701 W. Thomas Ave",,"Litchfield ",AZ,85340
542,"Scott LIbby Elementary School",,"18701 W Thomas Rd",,"Litchfield Park",AZ,85340
1067,"Scottsdale Artists' School",,"3720 North Marshall Way",,Scottsdale,AZ,85251
1099,"Scottsdale Bible Church",,"7901 E. Shea Blvd ",,Scottsdale,AZ,85260
1090,"Scottsdale Bible Church - Chapel",,"7601 E Shea Blvd",,Scottsdale,AZ,85260
99,"Scottsdale Child Care & Learning Center at Kierland",,"6440 E. Greenway Parkway",,Scottsdale,AZ,85254
904,"Scottsdale Civic Center Library",,"3939 North Drinkwater Boulevard",,Scottsdale,AZ,85251
814,"Scottsdale/Paradise Valley Family YMCA ",,"6869 East Shea Boulevard",,Scottsdale,AZ,85254
398,"Scottsdale/PV YMCA",,"6869 E. Shea Blvd",,Scottsdale,AZ,85254
892,"Scottsdale Worship Center",,"6508 East Cactus Road ",,Scottsdale,AZ,85254
787,"Sechrist FACTS",,"2230 N. Fort Valley Rd.",,Flagstaff,AZ,86001
925,"Senita Valley Elementary School ",,"10750 E. Bilby Rd.",,Tucson,AZ,85747
185,"Settlers Point Elementary",,"423 E Settlers Point Dr",,Gilbert,AZ,85296
356,"Sewell Elementary School",,"425 N. Sahuara",,Tucson,AZ,85711
345,"Shaw Butte Elementary School",,"12202 N. 21st Avenue",,Phoenix,AZ,85029
1043,"Sheely Farms Elmentary School ",,"9450 W. Encanto Blvd.",,"Phoenix ",AZ,83037
163,"Shepherd Junior High School",,"1407 N. Alta Mesa Drive",,Mesa,AZ,85737
18,"Shumway Elementary School",,"1325 N. Shumway Ave.",,Chandler,AZ,85225
110,"Sierra Verde School",,"7241 W. Rose Garden Lane",,Glendale,AZ,85308
452,"Sirrine Elementary",,"591 W Mesquite",,Chandler,AZ,85225
236,"SK8 ASYLUM (Mesa, AZ)",,"8743 E. Pecos Rd.","Suite 136",Mesa,AZ,85212
631,"Sky View Elementary",,"8624 W. Sweetwater",,Peoria,AZ,85345
28,"Skyview High School",,"7820 E.Wrightstown Rd.",,Tucson,AZ,85715
434,"Small World",,"3637 E. 3rd St.",,Tucson,AZ,85716
165,"Small World II Preschool",,"8720 E. Speedway Blvd.",,Tucson,AZ,85710
978,"Smith Park",,"4030 W. Sherman",,Phoenix,AZ,85009
1076,"Snedigar Recreation Center",,"4500 S. Basha Rd.",,Chandler,AZ,85248
750,"Soleng Tom Elementary",,"10520 E Camino Quince",,Tucson,AZ,85748
12,"Somerton Middle School",,"1011 N. Somerton Ave",,Somerton,AZ,85350
850,"Sonoran Heights Elementary",,"11405 N. Greer Ranch Pkwy.",,Surprise,AZ,85379
321,"Sonoran Sky Elementary",,"12990 N. 75th Street",,Scottsdale,AZ,85260
252,"Sonoran Sky Elementary",,"12990 N. 75th ST",,Scottsdale,AZ,85260
653,"Southminster Presbyterian Church",,"1923 E. Broadway Road",,Phoenix,AZ,85040
982,"South Pointe Elementary",,"2033 E. Southern Ave",,"Phoenix ",AZ,85040
217,"South Scottsdale",,"6535 E. Osborn",,Scottsdale,AZ,85257
112,"Southside Community School",,"2701 S. Campbell Avenue",,Tucson,AZ,85713
686,"Southwest Autism Research & Resource Center (SARRC)",,"300 N. 18th Street",,Phoenix,AZ,85006
523,"Southwest Elementary School",,"1111 W. Dobbins Road",,Phoenix,AZ,85042
278,"Southwest Valley Family YMCA",,"2919 N. Litchfield Rd.",,Goodyear,AZ,85395
815,"Southwest Valley Family YMCA",,"1919 N Litchfield Rd",,Goodyear,AZ,85395
816,"SouthwestValley Family YMCA @ Garden Lakes Elem",,"10825 W Garden Lakes",,Phoenix,AZ,85338
232,"Spectrum elementary",,"2846 s spectrum way",,Gilbert,AZ,85295
905,"Sports & Fitness Center (SpoFit)",,"5031 E. Washington Street",,Phoenix,AZ,85034
927,"St Ambrose Catholic School",,"300 S. Tucson Blvd",,Tucson,AZ,85716
1128,"STARS ",,"11130 E. Cholla Street",,Scottsdale,AZ,85259
695,"St. Cyril of Alexandria School",,"4725 East Pima Street",,Tucson,AZ,85712
78,"Steele Elementary School",,"700 S Sarnoff Drive",,Tucson,AZ,85710
143,"Stetson Hills Elementary School",,"25475 N. Stetson Hills Loop",,Phoenix,AZ,85083
70,"St. Gregory College Preparatory School",,"3231 N. Craycroft Rd",,Tucson,AZ,85712
155,"St. Gregory's Catholic School",,"3440 N. 18TH. Avenue",,Phoenix,AZ,85018
139,"St. James United Methodist Church",,"3255 N. Campbell Ave.",,Tucson,AZ,85719
331,"St. John Bosco Catholic School",,"16035 S 48th St",,,AZ,85048
311,"St. John the Evangelist School",,"600 W. Ajo Way",,Tucson,AZ,85713
436,"St. Joseph School",,"215 S. Craycroft Rd.",,Tucson,AZ,85711
1003,"Summer Camp Iwannago",,"3330 E. Lockett",,Flagstaff,AZ,86004
1143,"Sundance Elementary",,"23800 W. Hadley Rd",,Buckeye,AZ,85326
701,"Sundance Elementary School",,"7051 W. Cholla Ave.",,Peoria,AZ,85345
206,"Sundance Elementary School",,"7051 W. Cholla",,Peoria,AZ,85345
1101,"Sunnyslope HS",,"35 W. Dunlap Ave.",,Phoenix,AZ,85020
777,"Sunrise Before/After Care program",,"17624 N 31st Ave ",,Phoenix,AZ,85053
1013,"Sunrise Discovery Club","Sunrise Discovery Club","9943 E. 28th Street",,Yuma,AZ,85367
68,"Sunrise Drive Elementary",,"5301 E Sunrise Dr",,Tucson,AZ,85718
1133,"Sunrise Drive Elementary",,"5301 E. Sunrise Dr.",,Tucson,AZ,85718
546,"Sunrise Elementary",,"17624 N 31st AVE",,Phoenix,AZ,85053
555,"Sunrise Elementary",,"17624 North 31st Ave",,Phoenix,AZ,85053
522,"Sunset Canyon Elementary",,"2727 E. Siesta Lane",,Phoenix,AZ,85050
153,"Sunset Elementary School",,"4626 W. Mountain View Rd",,Glendale,AZ,85302
848,"Sunset Hills Elementary",,"17825 W. Sierra Montana Loop",,Surprise,AZ,85388
3,"Sunset Ridge Elementary",,"35707 N.33rd Lane",,Phoenix,AZ,85086
940,"Sunset Vista School",,"7775 W Orangewood Ave",,Glendale,AZ,85303
291,"Sun Valley Elementary School",,"8361 N. 95 Ave.",,Peoria,AZ,85345
412,"Superstition Springs Elementary",,"7125 E. Monterey",,Mesa,AZ,85209
521,"Sureno Elementary School",,"3375 W. Galveston St.",,Chandler,AZ,85226
849,"Surprise Elementary",,"12907 W. Greenway Rd.",,"El Mirage",AZ,85335
1123,"SWIMkids USA",,"2725 W Guadalupe Rd",,Mesa,AZ,85202
1055,"Sybil B. Harrington Campus for Imagination and Wonder",,"900 S. Mitchell Drive",,Tempe,AZ,85281
116,"Sycamore Elementary School",,"16701 S. Houghton Rd.",,Vail,AZ,85641
609,"Taft Elementary School",,"9800 E Quarterline Rd",,Mesa,AZ,85207
529,"Tanque Verde Elementary",,"2700 N. Fennimore",,Tucson,AZ,85749
720,"Tartesso Kid's BASE",,"29677 W Indianola Rd.",,Buckeye,AZ,85396
184,"Tarwater Elementary",,"2300 S Gardner",,Chandler,AZ,85248
349,"Tavan Elementary School",,"4610 E Osborn",,Phoenix,AZ,85018
351,"Tavan Elementary School",,"3610 E. Osborn",,Phoenix,AZ,85015
813,"Tempe Family YMCA",,"7070 S Rural Rd",,Tempe,AZ,85283
220,"Terramar Elementary",,"7000 West Happy Valley Road",,Peoria,AZ,85083
388,"Terramar School",,"7000 W Happy Valley Road",,Peoria,AZ,85383
1102,"Tesseract Shea Campus",,"3939 East Shea Boulevard",,Phoenix,AZ,85028
908,Test,,"4808 N 14th Ave",,Phoenix,AZ,85013
532,"The Desert Botanical Garden",,"1201 N. Galvin Parkway",,Phoenix,AZ,85008
1094,"The Flagstaff Cooperative Preschool Inc. afterschool program",,"850 N. Bonito Ave.",,Flagstaff,AZ,86001
484,"The House of Neighborly Services",,"243 w 33rd st",,tucson,AZ,85713
559,"The International School of Arizona",,"9128 E. San Salvador  Dr",,Scottsdale,AZ,85258
105,"The Learning Curve Child Center",,"71 S. McQueen RD",,Gilbert,AZ,85233
664,"
The Montessori Schoolhouse of Tucson, Inc.",,"1127 N. 6th Avenue",,Tucson,AZ,
668,"
The Montessori Schoolhouse of Tucson, Inc.",,"1301 E. Ft. Lowell Rd",,Tucson,AZ,
1068,"The Salvation Army Kroc Center",,"1375 E. Broadway Rd",,Phoenix,AZ,85040
820,"The Zone",,"101 N Greenfield RD",,Gilbert,AZ,85296
911,"Thomas FACTS",,"3330 E. Locket",,Flagstaff,AZ,86004
788,"Thomas FACTS",,"3330 E. Lockett ",,Flagstaff,AZ,86004
880,"Thompson Ranch Elementary School",,"11800 W Thompson Ranch Rd",,"El Mirage",AZ,85335
485,"Three Points Childcare Center",,"15530 W. Ajo Way",,Tucson,AZ,85735
1103,"Thunderbird Academy",,"7410 East Sutton Drive",,Scottsdale,AZ,85260
1139,"Thunderbirds Branch",,"20199 N 78th place",,Scottsdale,AZ,85255
225,"Thunderbirds Branch",,"20199 N. 78th Place",,Scottsdale,AZ,85255
601,"Thunderbirds Branch - Guadalupe",,"9225 S. Avenida Del Yaqui",,Guadalupe,AZ,85283
216,"Tiny Tots West Preschool & Childcare",,"1024 W. University Dr.",,Mesa,AZ,85201
64,"Tolleson Az",,"9251 W. Washington Street",,Tolleson,AZ,85353
322,"Tolson Elementary School",,"1000 S. Greasewood Rd.",,Tucson,AZ,85745
704,"Tomahawk Elementary",,"7820 West Turney Avenue",,Phoenix,AZ,85033
520,"Tonalea Elementary School",,"6801 E. Oak St.",,Scottsdale,AZ,85257
257,"Tortolita Middle School",,"4101 W Hardy Rd",,Tucson,AZ,85742
103,"Toscana Studio and Gallery",,"9040 N Oracle Rd",,"Oro Valley",AZ,85704
326,"Tots Unlimited #21",,"6736 W. Camelback",,Glendale,AZ,85303
657,"Tots unlimited preschool and childcare",,"8311 W Glendale Ave",,Glendale,AZ,85305
470,"Towne Meadows Elementary School",,"1101 N. Recker Rd.",,Gilbert,AZ,85234
369,"Tri-City Baptist Church",,"2211 West Germann Road",,Chandler,AZ,85286
450,"Trinity Lutheran Church and School",,"830 E. Plaza Circle",,"Litchfield Park",AZ,85392
569,"Tucson Cheer Academy",,"320 S Plumer Ave",,Tucson,AZ,85719
1159,"Tucson Jewish Community Center",,"3800 E. River Road",,Tucson,AZ,85718
561,"Tucson Nursery School",,"2385 S. Plumer Ave.",,Tucson,AZ,85713
622,"Tucson Youth Development/ACE Charter High School",,"1901 N. Stone Avenue",,Tucson,AZ,85705
376,"Tumbleweed Elementary School",,"4001 W. Laurel Lane",,Phoenix,AZ,85029
183,"Tutoring Club",,"4024 E Guadalupe Rd",,Gilbert,AZ,85297
696,"Tutoring Club of the Foothills",,"4772 E. Sunrise Drive",,Tucson,AZ,85718
180,"Tutor Time",,"10260 N. 67th Ave",,Glendale,AZ,85302
416,"Tutor Time 55th Ave Bell Road",,"5550 West Bell Road",,Glendale,AZ,85308
598,"Tutor Time Learning Center",,"7810 W. Lower Buckeye Road",,Phoenix,AZ,85043
301,"Twin Peaks Elementary School",,"7995 W. Twin Peaks Road",,Tucson,AZ,85743
461,"Udall Regional Center",,"7200 E. Tanque Verde",,Tucson,AZ,
101,"UMOM New Day Center",,"3333 E Van Buren St",,Phoenix,AZ,85008
832,USA,USA,"20217 E. Chandler Heights Road",,"Queen Creek",AZ,85142
172,"Valley View Elementary School",,"8220 S 7th Ave",,Phoenix,AZ,85042
637,"Valley Youth Theatre",,"525 North First Street",,Phoenix,AZ,85004
158,"Val Vista Lakes Elementary",,"1030 N. Blue Grotto Drive",,Gilbert,AZ,85234
1134,"Ventana Vista Elementary",,"6085 N. Kolb Rd.",,Tucson,AZ,85750
606,"Ventana Vista Elementary School",,"6085 N Kolb Rd",,Tucson,AZ,85750
863,"Verrado Elementaty",,"20873 W. Sunrise Ln",,Buckeye,AZ,85396
751,"Vesey Elementary",,"5005 S Butts Rd",,Tucson,AZ,85757
166,Vestar,,"3975 e lockwood",,phoenix,AZ,85050
587,"Village Vista Elementary School",,"4215 E Andora Drive",,Phoenix,AZ,
605,"Villas de Merced",,"520 N Mesa Dr",,Mesa,AZ,85201
375,"Villas De Merced",,"520 N. Mesa",,Mesa,AZ,85201
145,"Vista Colina Emergency Family Shelter",,"1050 w mountain view rd",,Phoenix,AZ,85021
885,"Vista Del Sur Traditional School",,"3908 West South Mountain Avenue",,Laveen,AZ,85339
314,"Vistancia Elementary",,"30009 N. Sunrise Pt.",,Peoria,AZ,85383
372,"Vistancia Elementary",,"30009 Sunrise Point",,Peoria,AZ,85373
443,"Vista Verde Middle School",,"2826 E. Grovers",,Phoenix,AZ,85032
240,"Waggoner School",,"1050 E Carver Dr",,Tempe,AZ,85824
90,"Wakefield Middle School",,"101 W 44th St.",,Tucson,AZ,85713
1040,"Walker School Age Program",,"1750 W. Rollercoaster Road",,Tucson,AZ,85704
118,"Ward Traditional Academy",,"1965 E Hermosa Dr",,Tempe,AZ,85282
547,"Warren Elementary School+",,"3505 W. Milton Rd",,Tucson,AZ,85746
192,"Washington Elementary",,"2260 W Isabella",,Mesa,AZ,85202
694,"Washington Elementary School",,"4650 West Sweetwater",,Glendale,AZ,85304
451,"Washington Elementary School",,"8033 N. 27th Ave",,Phoenix,AZ,85051
971,"Webster Recreation Center","Centro Recreational Webster","202 N Sycamroe",,Mesa,AZ,85210
100,"Weinberg Elementary",,"5245 S. Val Vista Dr.",,Gilbert,AZ,85298
341,"Wesley Community Center",,"1300 s 10th Street",,phoenix,AZ,85034
480,"Westar Elementary School",,"17777 W. Westar Drive",,Goodyear,AZ,85338
599,"West campus",,"2700 w broadway",,tucson,AZ,
478,"West Elementart",,"470 S. 7th Street",,Coolidge,AZ,85128
852,"Western Peaks Elementary",,"18063 W. Surprise Farms Loop S.",,Surprise,AZ,85388
1137,"Western School of Science & Technology",,"6515 W. Indian School Rd.",,Phoenix,AZ,85033
1125,West-MEC,"START Campus","5405 N 99th Ave",,Glendale,AZ,85305
611,"West Phoenix High School",,"3835 West Thomas Road",,Phoenix,AZ,85019
851,"West Point Elementary",,"13700 W. Greenway Rd.",,Surprise,AZ,85374
107,"West Wing Elementary",,"26716 N. High Desert Drive",,Peoria,AZ,85383
108,"Whispering Wind Academy",,"15844 N. 43rd Street",,Phoenix,AZ,85032
752,"White Elementary",,"2315 W Canada St",,Tucson,AZ,85746
347,"Whitmore Elementary School",,"5330 East Glenn",,Tucson,AZ,85712
1119,"Whittier School",,"2000 N. 16th St.",,Phoenix,AZ,85006
88,"Wildfire Elementary School",,"3997 E Lockwood Drive",,Phoenix,AZ,85050
939,"William C Jack School",,"6600 W Missouri",,Glendale,AZ,85301
214,"William R. Sullivan Elementary School",,"2 North 31st Avenue",,Phoenix,AZ,85009
1105,"Williams Aquatic Center",,"320 W. Railroad Ave.",,Williams,AZ,86046
1104,"Williams Youth Recreation Center",,"300 W. Railroad Ave.",,Williams,AZ,86046
60,"Wilson Elementary",,"5619 E Glade Ave",,Mesa,AZ,85206
323,"Wilson Elementary School",,"2929 East Fillmore Street",,,,
1041,"Wilson School Age Program",,"2300 N. Glover Road",,Tucson,AZ,85742
222,"Winberg elementary school",,"5245 south val vista drive",,gilbert,AZ,85298
247,"Winters' Well Elementary School",,"35220 W. Buckeye Rd.",,Tonopah,AZ,85354
336,"Wood School",,"625 W Cornell Dr",,Tempe,AZ,85283
929,"Woods Memorial Library",,"3455 N 1st Ave",,Tucson,AZ,85719
980,"Y at Great Expectations Academy",,"1466 W. Camino Antigua",,Sahuarita,AZ,85629
380,"Yavapai Elementary School",,"701 N. Miller Road",,Scottsdale,AZ,85257
128,"Yellow Jacket Youth Center",,"1593 W. Johnson Drive",,Lakeside,AZ,85929
956,"YMCA at Academy of Tucson",,"9209 E Wrightstown ",,Tucson,AZ,85715
957,"YMCA at Dietz",,"7575 E Palma ",,"Tucson ",AZ,85710
365,"Youth and  Young Adult Programs, Town of Guadalupe",,"9050 S Avenida del Yaqui",,Guadalupe,AZ,85283
819,"Yuma Family YMCA",,"2550 South 4th Ave",,Yuma,AZ,85364
57,"Zaharis Elementary",,"9410 E McKellips Rd",,Mesa,AZ,85207
565,"Zuni Hills Elementary",,"10851 W. Williams",,Peoria,AZ,85383
